{"type":"FeatureCollection","features":[{"type":"Feature","properties":{"area_key":"ABRA|BANGUED","name":"Bangued","short_name":"Bangued","province":"Abra","psgc":"140101000","is_city":false,"kind":"municipality","area":101.36},"geometry":{"type":"Point","coordinates":[120.62026,17.58911]}},{"type":"Feature","properties":{"area_key":"ABRA|BOLINEY","name":"Boliney","short_name":"Boliney","province":"Abra","psgc":"140102000","is_city":false,"kind":"municipality","area":151.62},"geometry":{"type":"Point","coordinates":[120.85032,17.37851]}},{"type":"Feature","properties":{"area_key":"ABRA|BUCAY","name":"Bucay","short_name":"Bucay","province":"Abra","psgc":"140103000","is_city":false,"kind":"municipality","area":84.22},"geometry":{"type":"Point","coordinates":[120.72218,17.54887]}},{"type":"Feature","properties":{"area_key":"ABRA|BUCLOC","name":"Bucloc","short_name":"Bucloc","province":"Abra","psgc":"140104000","is_city":false,"kind":"municipality","area":48.77},"geometry":{"type":"Point","coordinates":[120.8728,17.44065]}},{"type":"Feature","properties":{"area_key":"ABRA|DAGUIOMAN","name":"Daguioman","short_name":"Daguioman","province":"Abra","psgc":"140105000","is_city":false,"kind":"municipality","area":79.28},"geometry":{"type":"Point","coordinates":[120.95631,17.44944]}},{"type":"Feature","properties":{"area_key":"ABRA|DANGLAS","name":"Danglas","short_name":"Danglas","province":"Abra","psgc":"140106000","is_city":false,"kind":"municipality","area":150.35},"geometry":{"type":"Point","coordinates":[120.61483,17.74248]}},{"type":"Feature","properties":{"area_key":"ABRA|DOLORES","name":"Dolores","short_name":"Dolores","province":"Abra","psgc":"140107000","is_city":false,"kind":"municipality","area":38.0},"geometry":{"type":"Point","coordinates":[120.70945,17.6479]}},{"type":"Feature","properties":{"area_key":"ABRA|LA PAZ","name":"La Paz","short_name":"La Paz","province":"Abra","psgc":"140108000","is_city":false,"kind":"municipality","area":44.81},"geometry":{"type":"Point","coordinates":[120.62365,17.65121]}},{"type":"Feature","properties":{"area_key":"ABRA|LACUB","name":"Lacub","short_name":"Lacub","province":"Abra","psgc":"140109000","is_city":false,"kind":"municipality","area":211.24},"geometry":{"type":"Point","coordinates":[120.90936,17.69378]}},{"type":"Feature","properties":{"area_key":"ABRA|LAGANGILANG","name":"Lagangilang","short_name":"Lagangilang","province":"Abra","psgc":"140110000","is_city":false,"kind":"municipality","area":77.33},"geometry":{"type":"Point","coordinates":[120.80508,17.66642]}},{"type":"Feature","properties":{"area_key":"ABRA|LAGAYAN","name":"Lagayan","short_name":"Lagayan","province":"Abra","psgc":"140111000","is_city":false,"kind":"municipality","area":113.23},"geometry":{"type":"Point","coordinates":[120.72129,17.78813]}},{"type":"Feature","properties":{"area_key":"ABRA|LANGIDEN","name":"Langiden","short_name":"Langiden","province":"Abra","psgc":"140112000","is_city":false,"kind":"municipality","area":76.37},"geometry":{"type":"Point","coordinates":[120.53305,17.61176]}},{"type":"Feature","properties":{"area_key":"ABRA|LICUAN BAAY","name":"Licuan-Baay","short_name":"Licuan-Baay","province":"Abra","psgc":"140113000","is_city":false,"kind":"municipality","area":234.26},"geometry":{"type":"Point","coordinates":[120.86091,17.57028]}},{"type":"Feature","properties":{"area_key":"ABRA|LUBA","name":"Luba","short_name":"Luba","province":"Abra","psgc":"140114000","is_city":false,"kind":"municipality","area":116.45},"geometry":{"type":"Point","coordinates":[120.67312,17.31238]}},{"type":"Feature","properties":{"area_key":"ABRA|MALIBCONG","name":"Malibcong","short_name":"Malibcong","province":"Abra","psgc":"140115000","is_city":false,"kind":"municipality","area":220.57},"geometry":{"type":"Point","coordinates":[121.01043,17.58057]}},{"type":"Feature","properties":{"area_key":"ABRA|MANABO","name":"Manabo","short_name":"Manabo","province":"Abra","psgc":"140116000","is_city":false,"kind":"municipality","area":65.54},"geometry":{"type":"Point","coordinates":[120.70865,17.41702]}},{"type":"Feature","properties":{"area_key":"ABRA|PENARRUBIA","name":"Peñarrubia","short_name":"Penarrubia","province":"Abra","psgc":"140117000","is_city":false,"kind":"municipality","area":33.65},"geometry":{"type":"Point","coordinates":[120.66176,17.54153]}},{"type":"Feature","properties":{"area_key":"ABRA|PIDIGAN","name":"Pidigan","short_name":"Pidigan","province":"Abra","psgc":"140118000","is_city":false,"kind":"municipality","area":46.72},"geometry":{"type":"Point","coordinates":[120.5762,17.54175]}},{"type":"Feature","properties":{"area_key":"ABRA|PILAR","name":"Pilar","short_name":"Pilar","province":"Abra","psgc":"140119000","is_city":false,"kind":"municipality","area":72.11},"geometry":{"type":"Point","coordinates":[120.59018,17.38661]}},{"type":"Feature","properties":{"area_key":"ABRA|SALLAPADAN","name":"Sallapadan","short_name":"Sallapadan","province":"Abra","psgc":"140120000","is_city":false,"kind":"municipality","area":113.43},"geometry":{"type":"Point","coordinates":[120.77887,17.49009]}},{"type":"Feature","properties":{"area_key":"ABRA|SAN ISIDRO","name":"San Isidro","short_name":"San Isidro","province":"Abra","psgc":"140121000","is_city":false,"kind":"municipality","area":38.29},"geometry":{"type":"Point","coordinates":[120.60711,17.48622]}},{"type":"Feature","properties":{"area_key":"ABRA|SAN JUAN","name":"San Juan","short_name":"San Juan","province":"Abra","psgc":"140122000","is_city":false,"kind":"municipality","area":58.28},"geometry":{"type":"Point","coordinates":[120.74129,17.69543]}},{"type":"Feature","properties":{"area_key":"ABRA|SAN QUINTIN","name":"San Quintin","short_name":"San Quintin","province":"Abra","psgc":"140123000","is_city":false,"kind":"municipality","area":48.73},"geometry":{"type":"Point","coordinates":[120.50939,17.52672]}},{"type":"Feature","properties":{"area_key":"ABRA|TAYUM","name":"Tayum","short_name":"Tayum","province":"Abra","psgc":"140124000","is_city":false,"kind":"municipality","area":41.17},"geometry":{"type":"Point","coordinates":[120.68043,17.60697]}},{"type":"Feature","properties":{"area_key":"ABRA|TINEG","name":"Tineg","short_name":"Tineg","province":"Abra","psgc":"140125000","is_city":false,"kind":"municipality","area":634.44},"geometry":{"type":"Point","coordinates":[120.86922,17.85527]}},{"type":"Feature","properties":{"area_key":"ABRA|TUBO","name":"Tubo","short_name":"Tubo","province":"Abra","psgc":"140126000","is_city":false,"kind":"municipality","area":366.52},"geometry":{"type":"Point","coordinates":[120.80054,17.2588]}},{"type":"Feature","properties":{"area_key":"ABRA|VILLAVICIOSA","name":"Villaviciosa","short_name":"Villaviciosa","province":"Abra","psgc":"140127000","is_city":false,"kind":"municipality","area":75.49},"geometry":{"type":"Point","coordinates":[120.64755,17.40514]}},{"type":"Feature","properties":{"area_key":"BENGUET|ATOK","name":"Atok","short_name":"Atok","province":"Benguet","psgc":"141101000","is_city":false,"kind":"municipality","area":151.15},"geometry":{"type":"Point","coordinates":[120.69423,16.57848]}},{"type":"Feature","properties":{"area_key":"BENGUET|BAGUIO","name":"Baguio City","short_name":"City of Baguio","province":"Benguet","psgc":"141102000","is_city":true,"kind":"municipality","area":49.14},"geometry":{"type":"Point","coordinates":[120.60253,16.39708]}},{"type":"Feature","properties":{"area_key":"BENGUET|BAKUN","name":"Bakun","short_name":"Bakun","province":"Benguet","psgc":"141103000","is_city":false,"kind":"municipality","area":267.24},"geometry":{"type":"Point","coordinates":[120.67951,16.84575]}},{"type":"Feature","properties":{"area_key":"BENGUET|BOKOD","name":"Bokod","short_name":"Bokod","province":"Benguet","psgc":"141104000","is_city":false,"kind":"municipality","area":328.89},"geometry":{"type":"Point","coordinates":[120.81739,16.43984]}},{"type":"Feature","properties":{"area_key":"BENGUET|BUGUIAS","name":"Buguias","short_name":"Buguias","province":"Benguet","psgc":"141105000","is_city":false,"kind":"municipality","area":149.48},"geometry":{"type":"Point","coordinates":[120.84711,16.72897]}},{"type":"Feature","properties":{"area_key":"BENGUET|ITOGON","name":"Itogon","short_name":"Itogon","province":"Benguet","psgc":"141106000","is_city":false,"kind":"municipality","area":369.11},"geometry":{"type":"Point","coordinates":[120.72423,16.3097]}},{"type":"Feature","properties":{"area_key":"BENGUET|KABAYAN","name":"Kabayan","short_name":"Kabayan","province":"Benguet","psgc":"141107000","is_city":false,"kind":"municipality","area":161.06},"geometry":{"type":"Point","coordinates":[120.84818,16.61811]}},{"type":"Feature","properties":{"area_key":"BENGUET|KAPANGAN","name":"Kapangan","short_name":"Kapangan","province":"Benguet","psgc":"141108000","is_city":false,"kind":"municipality","area":153.25},"geometry":{"type":"Point","coordinates":[120.58593,16.60156]}},{"type":"Feature","properties":{"area_key":"BENGUET|KIBUNGAN","name":"Kibungan","short_name":"Kibungan","province":"Benguet","psgc":"141109000","is_city":false,"kind":"municipality","area":141.51},"geometry":{"type":"Point","coordinates":[120.68101,16.69792]}},{"type":"Feature","properties":{"area_key":"BENGUET|LA TRINIDAD","name":"La Trinidad","short_name":"La Trinidad","province":"Benguet","psgc":"141110000","is_city":false,"kind":"municipality","area":59.59},"geometry":{"type":"Point","coordinates":[120.58644,16.46615]}},{"type":"Feature","properties":{"area_key":"BENGUET|MANKAYAN","name":"Mankayan","short_name":"Mankayan","province":"Benguet","psgc":"141111000","is_city":false,"kind":"municipality","area":123.88},"geometry":{"type":"Point","coordinates":[120.79348,16.85239]}},{"type":"Feature","properties":{"area_key":"BENGUET|SABLAN","name":"Sablan","short_name":"Sablan","province":"Benguet","psgc":"141112000","is_city":false,"kind":"municipality","area":85.95},"geometry":{"type":"Point","coordinates":[120.51386,16.49666]}},{"type":"Feature","properties":{"area_key":"BENGUET|TUBA","name":"Tuba","short_name":"Tuba","province":"Benguet","psgc":"141113000","is_city":false,"kind":"municipality","area":289.16},"geometry":{"type":"Point","coordinates":[120.57334,16.3021]}},{"type":"Feature","properties":{"area_key":"BENGUET|TUBLAY","name":"Tublay","short_name":"Tublay","province":"Benguet","psgc":"141114000","is_city":false,"kind":"municipality","area":64.58},"geometry":{"type":"Point","coordinates":[120.62569,16.51727]}},{"type":"Feature","properties":{"area_key":"IFUGAO|BANAUE","name":"Banaue","short_name":"Banaue","province":"Ifugao","psgc":"142701000","is_city":false,"kind":"municipality","area":163.02},"geometry":{"type":"Point","coordinates":[121.09397,16.94681]}},{"type":"Feature","properties":{"area_key":"IFUGAO|HUNGDUAN","name":"Hungduan","short_name":"Hungduan","province":"Ifugao","psgc":"142702000","is_city":false,"kind":"municipality","area":204.75},"geometry":{"type":"Point","coordinates":[120.97596,16.84887]}},{"type":"Feature","properties":{"area_key":"IFUGAO|KIANGAN","name":"Kiangan","short_name":"Kiangan","province":"Ifugao","psgc":"142703000","is_city":false,"kind":"municipality","area":100.97},"geometry":{"type":"Point","coordinates":[121.08424,16.7785]}},{"type":"Feature","properties":{"area_key":"IFUGAO|LAGAWE","name":"Lagawe","short_name":"Lagawe","province":"Ifugao","psgc":"142704000","is_city":false,"kind":"municipality","area":194.1},"geometry":{"type":"Point","coordinates":[121.18911,16.80876]}},{"type":"Feature","properties":{"area_key":"IFUGAO|LAMUT","name":"Lamut","short_name":"Lamut","province":"Ifugao","psgc":"142705000","is_city":false,"kind":"municipality","area":127.39},"geometry":{"type":"Point","coordinates":[121.1946,16.69447]}},{"type":"Feature","properties":{"area_key":"IFUGAO|MAYOYAO","name":"Mayoyao","short_name":"Mayoyao","province":"Ifugao","psgc":"142706000","is_city":false,"kind":"municipality","area":232.22},"geometry":{"type":"Point","coordinates":[121.21795,16.94908]}},{"type":"Feature","properties":{"area_key":"IFUGAO|ALFONSO LISTA","name":"Alfonso Lista","short_name":"Alfonso Lista","province":"Ifugao","psgc":"142707000","is_city":false,"kind":"municipality","area":304.36},"geometry":{"type":"Point","coordinates":[121.50317,16.97601]}},{"type":"Feature","properties":{"area_key":"IFUGAO|AGUINALDO","name":"Aguinaldo","short_name":"Aguinaldo","province":"Ifugao","psgc":"142708000","is_city":false,"kind":"municipality","area":381.82},"geometry":{"type":"Point","coordinates":[121.36077,16.93213]}},{"type":"Feature","properties":{"area_key":"IFUGAO|HINGYON","name":"Hingyon","short_name":"Hingyon","province":"Ifugao","psgc":"142709000","is_city":false,"kind":"municipality","area":48.54},"geometry":{"type":"Point","coordinates":[121.10042,16.86125]}},{"type":"Feature","properties":{"area_key":"IFUGAO|TINOC","name":"Tinoc","short_name":"Tinoc","province":"Ifugao","psgc":"142710000","is_city":false,"kind":"municipality","area":194.2},"geometry":{"type":"Point","coordinates":[120.94945,16.73384]}},{"type":"Feature","properties":{"area_key":"IFUGAO|ASIPULO","name":"Asipulo","short_name":"Asipulo","province":"Ifugao","psgc":"142711000","is_city":false,"kind":"municipality","area":174.0},"geometry":{"type":"Point","coordinates":[121.05564,16.68611]}},{"type":"Feature","properties":{"area_key":"KALINGA|BALBALAN","name":"Balbalan","short_name":"Balbalan","province":"Kalinga","psgc":"143201000","is_city":false,"kind":"municipality","area":537.79},"geometry":{"type":"Point","coordinates":[121.19958,17.54825]}},{"type":"Feature","properties":{"area_key":"KALINGA|LUBUAGAN","name":"Lubuagan","short_name":"Lubuagan","province":"Kalinga","psgc":"143206000","is_city":false,"kind":"municipality","area":53.07},"geometry":{"type":"Point","coordinates":[121.18404,17.34858]}},{"type":"Feature","properties":{"area_key":"KALINGA|PASIL","name":"Pasil","short_name":"Pasil","province":"Kalinga","psgc":"143208000","is_city":false,"kind":"municipality","area":286.52},"geometry":{"type":"Point","coordinates":[121.00485,17.32695]}},{"type":"Feature","properties":{"area_key":"KALINGA|PINUKPUK","name":"Pinukpuk","short_name":"Pinukpuk","province":"Kalinga","psgc":"143209000","is_city":false,"kind":"municipality","area":311.63},"geometry":{"type":"Point","coordinates":[121.42673,17.6041]}},{"type":"Feature","properties":{"area_key":"KALINGA|RIZAL","name":"Rizal","short_name":"Rizal","province":"Kalinga","psgc":"143211000","is_city":false,"kind":"municipality","area":157.22},"geometry":{"type":"Point","coordinates":[121.60059,17.48342]}},{"type":"Feature","properties":{"area_key":"KALINGA|TABUK","name":"Tabuk City","short_name":"City of Tabuk","province":"Kalinga","psgc":"143213000","is_city":true,"kind":"municipality","area":586.64},"geometry":{"type":"Point","coordinates":[121.46336,17.41854]}},{"type":"Feature","properties":{"area_key":"KALINGA|TANUDAN","name":"Tanudan","short_name":"Tanudan","province":"Kalinga","psgc":"143214000","is_city":false,"kind":"municipality","area":288.04},"geometry":{"type":"Point","coordinates":[121.26658,17.29925]}},{"type":"Feature","properties":{"area_key":"KALINGA|TINGLAYAN","name":"Tinglayan","short_name":"Tinglayan","province":"Kalinga","psgc":"143215000","is_city":false,"kind":"municipality","area":181.79},"geometry":{"type":"Point","coordinates":[121.11439,17.25757]}},{"type":"Feature","properties":{"area_key":"MOUNTAIN PROVINCE|BARLIG","name":"Barlig","short_name":"Barlig","province":"Mountain Province","psgc":"144401000","is_city":false,"kind":"municipality","area":214.36},"geometry":{"type":"Point","coordinates":[121.13514,17.06897]}},{"type":"Feature","properties":{"area_key":"MOUNTAIN PROVINCE|BAUKO","name":"Bauko","short_name":"Bauko","province":"Mountain Province","psgc":"144402000","is_city":false,"kind":"municipality","area":109.64},"geometry":{"type":"Point","coordinates":[120.88735,16.86779]}},{"type":"Feature","properties":{"area_key":"MOUNTAIN PROVINCE|BESAO","name":"Besao","short_name":"Besao","province":"Mountain Province","psgc":"144403000","is_city":false,"kind":"municipality","area":110.81},"geometry":{"type":"Point","coordinates":[120.8329,17.10874]}},{"type":"Feature","properties":{"area_key":"MOUNTAIN PROVINCE|BONTOC","name":"Bontoc","short_name":"Bontoc","province":"Mountain Province","psgc":"144404000","is_city":false,"kind":"municipality","area":237.61},"geometry":{"type":"Point","coordinates":[121.00043,17.06382]}},{"type":"Feature","properties":{"area_key":"MOUNTAIN PROVINCE|NATONIN","name":"Natonin","short_name":"Natonin","province":"Mountain Province","psgc":"144405000","is_city":false,"kind":"municipality","area":305.09},"geometry":{"type":"Point","coordinates":[121.28544,17.12604]}},{"type":"Feature","properties":{"area_key":"MOUNTAIN PROVINCE|PARACELIS","name":"Paracelis","short_name":"Paracelis","province":"Mountain Province","psgc":"144406000","is_city":false,"kind":"municipality","area":400.32},"geometry":{"type":"Point","coordinates":[121.45211,17.19089]}},{"type":"Feature","properties":{"area_key":"MOUNTAIN PROVINCE|SABANGAN","name":"Sabangan","short_name":"Sabangan","province":"Mountain Province","psgc":"144407000","is_city":false,"kind":"municipality","area":96.04},"geometry":{"type":"Point","coordinates":[120.93287,16.97558]}},{"type":"Feature","properties":{"area_key":"MOUNTAIN PROVINCE|SADANGA","name":"Sadanga","short_name":"Sadanga","province":"Mountain Province","psgc":"144408000","is_city":false,"kind":"municipality","area":149.65},"geometry":{"type":"Point","coordinates":[121.03508,17.18927]}},{"type":"Feature","properties":{"area_key":"MOUNTAIN PROVINCE|SAGADA","name":"Sagada","short_name":"Sagada","province":"Mountain Province","psgc":"144409000","is_city":false,"kind":"municipality","area":55.0},"geometry":{"type":"Point","coordinates":[120.90534,17.08119]}},{"type":"Feature","properties":{"area_key":"MOUNTAIN PROVINCE|TADIAN","name":"Tadian","short_name":"Tadian","province":"Mountain Province","psgc":"144410000","is_city":false,"kind":"municipality","area":115.0},"geometry":{"type":"Point","coordinates":[120.81652,17.01831]}},{"type":"Feature","properties":{"area_key":"APAYAO|CALANASAN","name":"Calanasan","short_name":"Calanasan","province":"Apayao","psgc":"148101000","is_city":false,"kind":"municipality","area":1165.09},"geometry":{"type":"Point","coordinates":[121.07392,18.32322]}},{"type":"Feature","properties":{"area_key":"APAYAO|CONNER","name":"Conner","short_name":"Conner","province":"Apayao","psgc":"148102000","is_city":false,"kind":"municipality","area":599.93},"geometry":{"type":"Point","coordinates":[121.20713,17.76384]}},{"type":"Feature","properties":{"area_key":"APAYAO|FLORA","name":"Flora","short_name":"Flora","province":"Apayao","psgc":"148103000","is_city":false,"kind":"municipality","area":208.1},"geometry":{"type":"Point","coordinates":[121.41925,18.15922]}},{"type":"Feature","properties":{"area_key":"APAYAO|KABUGAO","name":"Kabugao","short_name":"Kabugao","province":"Apayao","psgc":"148104000","is_city":false,"kind":"municipality","area":844.3},"geometry":{"type":"Point","coordinates":[121.16267,17.979]}},{"type":"Feature","properties":{"area_key":"APAYAO|LUNA","name":"Luna","short_name":"Luna","province":"Apayao","psgc":"148105000","is_city":false,"kind":"municipality","area":274.03},"geometry":{"type":"Point","coordinates":[121.28959,18.31251]}},{"type":"Feature","properties":{"area_key":"APAYAO|PUDTOL","name":"Pudtol","short_name":"Pudtol","province":"Apayao","psgc":"148106000","is_city":false,"kind":"municipality","area":258.07},"geometry":{"type":"Point","coordinates":[121.29431,18.16476]}},{"type":"Feature","properties":{"area_key":"APAYAO|SANTA MARCELA","name":"Santa Marcela","short_name":"Santa Marcela","province":"Apayao","psgc":"148107000","is_city":false,"kind":"municipality","area":55.46},"geometry":{"type":"Point","coordinates":[121.43821,18.28943]}},{"type":"Feature","properties":{"name":"Abra","kind":"province","name_wrapped":"Abra"},"geometry":{"type":"Point","coordinates":[120.79964,17.56394]}},{"type":"Feature","properties":{"name":"Benguet","kind":"province","name_wrapped":"Benguet"},"geometry":{"type":"Point","coordinates":[120.70265,16.55349]}},{"type":"Feature","properties":{"name":"Ifugao","kind":"province","name_wrapped":"Ifugao"},"geometry":{"type":"Point","coordinates":[121.17004,16.82369]}},{"type":"Feature","properties":{"name":"Kalinga","kind":"province","name_wrapped":"Kalinga"},"geometry":{"type":"Point","coordinates":[121.313,17.42997]}},{"type":"Feature","properties":{"name":"Mountain Province","kind":"province","name_wrapped":"Mountain\nProvince"},"geometry":{"type":"Point","coordinates":[121.05257,17.05593]}},{"type":"Feature","properties":{"name":"Apayao","kind":"province","name_wrapped":"Apayao"},"geometry":{"type":"Point","coordinates":[121.1968,18.08947]}}]}