{"type":"FeatureCollection","features":[{"type":"Feature","properties":{},"geometry":{"type":"MultiPolygon","coordinates":[[[[110.0,2.0],[110.0,25.0],[135.0,25.0],[135.0,2.0],[110.0,2.0]],[[120.77062,16.92119],[120.75882,16.9265],[120.74751,16.92655],[120.74069,16.91778],[120.73857,16.91598],[120.73626,16.91723],[120.7341,16.91469],[120.66956,16.91198],[120.66008,16.90899],[120.65715,16.90146],[120.64433,16.89737],[120.62454,16.87778],[120.61305,16.85699],[120.61018,16.84002],[120.58602,16.83666],[120.58502,16.8201],[120.588,16.77615],[120.58624,16.77083],[120.58826,16.76744],[120.58962,16.74718],[120.59904,16.73832],[120.57452,16.67126],[120.57151,16.67251],[120.56506,16.66977],[120.55565,16.65759],[120.54122,16.63801],[120.51786,16.59469],[120.51204,16.5717],[120.51592,16.57105],[120.51708,16.56862],[120.51338,16.56226],[120.51636,16.55802],[120.51263,16.55026],[120.48809,16.54087],[120.47821,16.53],[120.47905,16.52282],[120.46915,16.50848],[120.46735,16.50271],[120.47311,16.47272],[120.47215,16.449],[120.46889,16.43263],[120.46997,16.42488],[120.46668,16.42375],[120.46673,16.41773],[120.45896,16.41668],[120.45411,16.40803],[120.45016,16.4086],[120.45027,16.4062],[120.45525,16.40488],[120.45382,16.39699],[120.4479,16.39241],[120.44903,16.38876],[120.44461,16.38613],[120.46904,16.37976],[120.4844,16.35889],[120.48227,16.35444],[120.47909,16.35537],[120.48161,16.35053],[120.4798,16.34871],[120.49472,16.34775],[120.49628,16.34544],[120.49326,16.34199],[120.4967,16.34014],[120.49615,16.33554],[120.49272,16.33569],[120.4906,16.33248],[120.49912,16.32306],[120.49737,16.31298],[120.50083,16.29336],[120.50655,16.28719],[120.5106,16.2758],[120.51257,16.25985],[120.5167,16.24948],[120.51182,16.2322],[120.5202,16.23344],[120.54275,16.22223],[120.55802,16.21842],[120.62924,16.18038],[120.63237,16.18395],[120.68197,16.18393],[120.69775,16.191],[120.76897,16.19803],[120.80005,16.30485],[120.81312,16.30356],[120.81593,16.31315],[120.82318,16.31853],[120.84552,16.3195],[120.86035,16.35339],[120.86392,16.37481],[120.87116,16.38424],[120.87814,16.42158],[120.88943,16.43607],[120.88321,16.50539],[120.89211,16.55846],[120.90441,16.59536],[120.92951,16.60005],[120.93994,16.58508],[120.94754,16.5792],[120.97311,16.56945],[120.98372,16.56947],[121.02794,16.60227],[121.0357,16.61001],[121.07213,16.62783],[121.10563,16.63056],[121.1355,16.64475],[121.15266,16.64209],[121.16058,16.63869],[121.16221,16.63904],[121.1632,16.64301],[121.16982,16.6459],[121.17368,16.64461],[121.1767,16.64027],[121.19775,16.63896],[121.20193,16.6398],[121.20447,16.64288],[121.21188,16.64167],[121.21312,16.64572],[121.22241,16.64466],[121.22471,16.64796],[121.2326,16.64916],[121.23604,16.65416],[121.24113,16.65394],[121.24382,16.65131],[121.24973,16.65094],[121.25216,16.65269],[121.25376,16.65105],[121.25889,16.65114],[121.26038,16.65833],[121.26409,16.66059],[121.26946,16.65899],[121.27115,16.66374],[121.27643,16.66853],[121.27917,16.66752],[121.28468,16.65778],[121.28988,16.65793],[121.29483,16.6633],[121.29137,16.67355],[121.29404,16.67925],[121.29188,16.68374],[121.28824,16.68624],[121.28837,16.68837],[121.29365,16.69412],[121.30437,16.69306],[121.31215,16.69778],[121.31376,16.69688],[121.31541,16.70131],[121.31434,16.71791],[121.32416,16.73122],[121.33037,16.73543],[121.33381,16.75194],[121.33931,16.75522],[121.33728,16.75621],[121.32973,16.75367],[121.32617,16.75754],[121.33175,16.76486],[121.34482,16.76765],[121.34577,16.76947],[121.34354,16.77754],[121.33632,16.7805],[121.33585,16.78479],[121.33917,16.78847],[121.34467,16.78903],[121.35409,16.78364],[121.35475,16.77442],[121.35954,16.77885],[121.35842,16.78702],[121.36212,16.78935],[121.37592,16.78845],[121.37796,16.79044],[121.37198,16.79543],[121.37201,16.79836],[121.38601,16.79668],[121.3946,16.80525],[121.40175,16.80487],[121.41952,16.81747],[121.43291,16.81849],[121.44491,16.82453],[121.45826,16.82628],[121.47342,16.83162],[121.47914,16.83597],[121.50235,16.83454],[121.52132,16.83893],[121.53183,16.85134],[121.53197,16.86339],[121.53798,16.87782],[121.54196,16.87764],[121.54887,16.87369],[121.55842,16.89909],[121.56372,16.90218],[121.56407,16.90761],[121.56822,16.90951],[121.56821,16.94796],[121.56984,16.94808],[121.5649,16.95091],[121.56437,16.95314],[121.56244,16.95143],[121.56203,16.95317],[121.56464,16.96114],[121.57287,16.96879],[121.56254,16.96739],[121.56072,17.00946],[121.55876,17.01219],[121.56873,17.01917],[121.57149,17.04094],[121.5686,17.06096],[121.56891,17.07242],[121.56604,17.08572],[121.56702,17.10783],[121.5656,17.1208],[121.56822,17.13075],[121.56695,17.1354],[121.56317,17.13792],[121.56334,17.14262],[121.5599,17.14453],[121.56267,17.15295],[121.56244,17.18535],[121.55539,17.18703],[121.54913,17.19652],[121.55043,17.21012],[121.5477,17.21458],[121.54278,17.24716],[121.54498,17.26489],[121.53709,17.26631],[121.53017,17.27492],[121.53322,17.29652],[121.5387,17.31727],[121.54836,17.32395],[121.55993,17.35048],[121.58219,17.35356],[121.59348,17.39692],[121.60608,17.42143],[121.6291,17.41832],[121.62793,17.43139],[121.63793,17.45354],[121.64237,17.46864],[121.64723,17.50048],[121.63961,17.50436],[121.63325,17.51926],[121.6352,17.52163],[121.62597,17.52859],[121.63258,17.53322],[121.6142,17.56032],[121.60304,17.56341],[121.59972,17.5482],[121.57673,17.55549],[121.5733,17.56479],[121.54672,17.58062],[121.53392,17.58432],[121.52582,17.58368],[121.51408,17.59018],[121.49661,17.59104],[121.49191,17.60935],[121.48724,17.61005],[121.48884,17.62598],[121.48409,17.6385],[121.47619,17.64545],[121.48512,17.64732],[121.47227,17.65991],[121.47587,17.66312],[121.47706,17.6688],[121.4727,17.67202],[121.46632,17.67232],[121.46371,17.66923],[121.45758,17.66945],[121.45762,17.66308],[121.45079,17.66081],[121.4401,17.66604],[121.43676,17.67135],[121.43931,17.69033],[121.43141,17.70101],[121.43137,17.7102],[121.42888,17.71148],[121.43069,17.71493],[121.42909,17.71924],[121.43041,17.72123],[121.42469,17.74036],[121.4165,17.74935],[121.41412,17.76319],[121.3883,17.79363],[121.37339,17.80085],[121.35867,17.80465],[121.32537,17.80309],[121.31347,17.80767],[121.31058,17.81293],[121.30605,17.81518],[121.30731,17.81658],[121.31945,17.81523],[121.31982,17.81839],[121.3174,17.82088],[121.31875,17.82509],[121.31593,17.82786],[121.31841,17.8287],[121.32072,17.8262],[121.32414,17.84713],[121.3342,17.86457],[121.34696,17.87942],[121.35707,17.9132],[121.35745,17.92237],[121.31512,17.97078],[121.31824,17.97096],[121.31859,17.97526],[121.32031,17.97339],[121.32412,17.97344],[121.32207,17.97547],[121.32311,17.97699],[121.32663,17.97511],[121.3205,17.9845],[121.32159,17.98868],[121.32416,17.98921],[121.3244,17.99211],[121.32769,17.99104],[121.33022,17.99249],[121.33162,17.99098],[121.33107,17.99371],[121.33334,17.99767],[121.33096,17.99978],[121.33855,18.00797],[121.33672,18.01369],[121.3397,18.01326],[121.34074,18.01595],[121.34423,18.0167],[121.34399,18.02278],[121.34759,18.02276],[121.34908,18.0249],[121.34828,18.02974],[121.34356,18.03175],[121.34689,18.03861],[121.36447,18.06162],[121.42784,18.03534],[121.46036,18.04941],[121.46567,18.10468],[121.46037,18.12412],[121.46475,18.126],[121.46857,18.12532],[121.46957,18.12844],[121.47329,18.1299],[121.47401,18.13376],[121.47077,18.13713],[121.47092,18.14033],[121.47854,18.14177],[121.4847,18.1491],[121.48346,18.15102],[121.48511,18.16298],[121.4825,18.16833],[121.48482,18.16888],[121.48328,18.16967],[121.48659,18.17799],[121.48419,18.17887],[121.48879,18.21727],[121.48948,18.23884],[121.48059,18.26338],[121.46791,18.2626],[121.46463,18.28491],[121.48022,18.30637],[121.46685,18.30733],[121.46126,18.31462],[121.41583,18.32357],[121.41286,18.32937],[121.40744,18.33334],[121.40238,18.3409],[121.36966,18.35726],[121.31862,18.38715],[121.28556,18.38854],[121.24884,18.42888],[121.22654,18.43647],[121.2277,18.44172],[121.2258,18.47282],[121.22086,18.48304],[121.22208,18.50058],[121.16786,18.52198],[121.16923,18.53912],[121.156,18.54377],[121.11848,18.54311],[121.08906,18.49539],[121.08905,18.52714],[121.09236,18.53046],[121.09057,18.53819],[121.09293,18.53914],[121.0935,18.54175],[121.06137,18.5392],[121.04278,18.52819],[121.03881,18.50503],[121.02347,18.49869],[121.00287,18.46611],[120.95867,18.4632],[120.94704,18.42063],[120.94836,18.38169],[120.91667,18.28456],[120.92676,18.24194],[120.93879,18.22089],[120.97007,18.18186],[120.94805,18.13715],[120.94854,18.13261],[120.92814,18.08819],[120.92753,18.07863],[120.93546,18.069],[120.93299,18.05757],[120.93584,18.04843],[120.9334,18.02913],[120.92775,18.02074],[120.93226,18.0139],[120.93812,18.0124],[120.93931,18.00519],[120.94505,17.99653],[120.94695,17.99709],[120.94483,17.98945],[120.93772,17.9843],[120.9204,17.95626],[120.90997,17.94993],[120.89459,17.95147],[120.86494,17.96152],[120.8502,17.96286],[120.83369,17.95945],[120.82604,17.95476],[120.81006,17.93505],[120.78375,17.91124],[120.74365,17.9014],[120.72825,17.89251],[120.71785,17.87333],[120.71309,17.85996],[120.69087,17.83458],[120.68185,17.83035],[120.63328,17.81909],[120.6246,17.81463],[120.60223,17.80928],[120.58279,17.7991],[120.57182,17.78603],[120.54274,17.73532],[120.53876,17.72238],[120.53877,17.71312],[120.52969,17.69294],[120.51639,17.64924],[120.49782,17.62513],[120.4881,17.58462],[120.48758,17.56699],[120.49009,17.55602],[120.48531,17.54794],[120.48754,17.54498],[120.47574,17.53442],[120.46817,17.51473],[120.46779,17.49567],[120.47028,17.48871],[120.47442,17.48425],[120.49603,17.48731],[120.51159,17.49823],[120.51757,17.49961],[120.53374,17.49841],[120.54334,17.4922],[120.56549,17.50176],[120.57589,17.49101],[120.58889,17.49216],[120.58166,17.47183],[120.57786,17.43001],[120.56237,17.40186],[120.54281,17.37176],[120.53781,17.35699],[120.53861,17.3436],[120.55753,17.31673],[120.55901,17.31167],[120.56461,17.31144],[120.56676,17.30716],[120.59361,17.31019],[120.61195,17.30222],[120.63617,17.27563],[120.6784,17.25684],[120.67671,17.24929],[120.66949,17.24461],[120.67308,17.24241],[120.68271,17.24361],[120.67988,17.23521],[120.68347,17.22615],[120.68203,17.21806],[120.676,17.21133],[120.68001,17.19879],[120.6729,17.19548],[120.67213,17.19285],[120.67927,17.1914],[120.68055,17.18725],[120.68785,17.1841],[120.68675,17.18075],[120.69163,17.17273],[120.70276,17.17497],[120.73402,17.16807],[120.73937,17.15915],[120.74409,17.16244],[120.75133,17.15526],[120.78622,17.15885],[120.7962,17.16185],[120.80475,17.17127],[120.80804,17.1653],[120.81236,17.15587],[120.77482,17.10802],[120.76761,17.06679],[120.7748,17.03616],[120.77708,17.01755],[120.78009,17.01649],[120.78148,16.96298],[120.78527,16.92134],[120.77062,16.92119]]],[[[120.74578,16.48887],[120.7477,16.48657],[120.74601,16.4827],[120.74742,16.48229],[120.75143,16.48699],[120.75327,16.48677],[120.75175,16.48261],[120.75555,16.48547],[120.7556,16.48337],[120.75858,16.48198],[120.76178,16.48192],[120.76305,16.48668],[120.76768,16.48611],[120.76455,16.48322],[120.76723,16.48064],[120.76624,16.47797],[120.76321,16.4798],[120.76005,16.47796],[120.75558,16.47982],[120.75183,16.47844],[120.75213,16.47484],[120.74995,16.4713],[120.75194,16.46799],[120.74719,16.46377],[120.74637,16.45886],[120.74109,16.46466],[120.74188,16.47053],[120.73589,16.47418],[120.74399,16.47187],[120.74476,16.47632],[120.74143,16.47716],[120.74561,16.48064],[120.744,16.48381],[120.74578,16.48887]]],[[[120.72657,16.41248],[120.72882,16.4124],[120.72864,16.41001],[120.72414,16.40653],[120.72413,16.40364],[120.73068,16.4039],[120.73204,16.40116],[120.72704,16.39772],[120.72726,16.39587],[120.72939,16.39582],[120.72853,16.39291],[120.7245,16.39114],[120.71888,16.3923],[120.71772,16.39421],[120.71963,16.40064],[120.72615,16.40104],[120.72272,16.40237],[120.72239,16.40584],[120.72657,16.41248]]],[[[120.67678,16.39559],[120.67959,16.3997],[120.67969,16.39645],[120.6783,16.39338],[120.67678,16.39559]]],[[[120.6754,16.63868],[120.67635,16.64008],[120.67849,16.63829],[120.67671,16.63699],[120.6754,16.63868]]],[[[120.65862,16.40078],[120.65819,16.40158],[120.65907,16.40079],[120.65862,16.40078]]]]}}]}