{"type":"FeatureCollection","features":[{"type":"Feature","id":1250,"properties":{"area_key":"ABRA|BANGUED","name":"Bangued","short_name":"Bangued","province":"Abra","psgc":"140101000","is_city":false},"geometry":{"type":"Polygon","coordinates":[[[120.60875,17.62596],[120.61649,17.62516],[120.61921,17.62751],[120.62614,17.6248],[120.62915,17.61302],[120.65208,17.59586],[120.66543,17.58188],[120.67699,17.57578],[120.68981,17.56179],[120.68079,17.56501],[120.67875,17.56229],[120.67421,17.56342],[120.65848,17.57373],[120.65166,17.57367],[120.63781,17.56851],[120.63822,17.56301],[120.63482,17.55938],[120.6385,17.55568],[120.63236,17.53782],[120.63375,17.52993],[120.62669,17.5217],[120.64813,17.5207],[120.65539,17.508],[120.65459,17.50081],[120.63776,17.49068],[120.61914,17.50158],[120.60916,17.51136],[120.61257,17.5303],[120.60665,17.53831],[120.60633,17.55786],[120.60983,17.55952],[120.61078,17.56255],[120.59755,17.56959],[120.59926,17.57462],[120.59202,17.58819],[120.5802,17.5979],[120.57585,17.60818],[120.57507,17.61675],[120.56592,17.62643],[120.55274,17.66529],[120.52969,17.69294],[120.53877,17.71312],[120.53876,17.72238],[120.54274,17.73532],[120.56505,17.70689],[120.60405,17.66709],[120.59627,17.65349],[120.60872,17.632],[120.60742,17.62805],[120.60875,17.62596]]]}},{"type":"Feature","id":1251,"properties":{"area_key":"ABRA|BOLINEY","name":"Boliney","short_name":"Boliney","province":"Abra","psgc":"140102000","is_city":false},"geometry":{"type":"Polygon","coordinates":[[[120.76019,17.41587],[120.88117,17.41649],[120.9099,17.41503],[120.97393,17.40173],[120.99207,17.4003],[120.98916,17.39221],[120.98251,17.38288],[120.97423,17.37953],[120.96337,17.36774],[120.95622,17.34071],[120.9115,17.34219],[120.76748,17.3393],[120.76312,17.3717],[120.76019,17.41587]]]}},{"type":"Feature","id":1252,"properties":{"area_key":"ABRA|BUCAY","name":"Bucay","short_name":"Bucay","province":"Abra","psgc":"140103000","is_city":false},"geometry":{"type":"Polygon","coordinates":[[[120.72225,17.58557],[120.72882,17.57782],[120.73551,17.58351],[120.75844,17.57333],[120.76922,17.57697],[120.77469,17.58244],[120.78348,17.57627],[120.78564,17.57182],[120.78119,17.56342],[120.78401,17.56023],[120.76143,17.53626],[120.74785,17.53455],[120.72881,17.45661],[120.72131,17.453],[120.70724,17.45271],[120.69032,17.45671],[120.67583,17.45674],[120.67165,17.49118],[120.66525,17.50048],[120.65553,17.50798],[120.69065,17.50324],[120.69749,17.50988],[120.69482,17.53626],[120.68576,17.54752],[120.69194,17.57095],[120.71532,17.58871],[120.72225,17.58557]]]}},{"type":"Feature","id":1253,"properties":{"area_key":"ABRA|BUCLOC","name":"Bucloc","short_name":"Bucloc","province":"Abra","psgc":"140104000","is_city":false},"geometry":{"type":"Polygon","coordinates":[[[120.89059,17.47018],[120.9099,17.41503],[120.88117,17.41649],[120.78493,17.4159],[120.78613,17.45023],[120.81715,17.45209],[120.89059,17.47018]]]}},{"type":"Feature","id":1254,"properties":{"area_key":"ABRA|DAGUIOMAN","name":"Daguioman","short_name":"Daguioman","province":"Abra","psgc":"140105000","is_city":false},"geometry":{"type":"Polygon","coordinates":[[[120.99281,17.41781],[120.99207,17.4003],[120.98505,17.40048],[120.9099,17.41503],[120.89059,17.47018],[120.93222,17.48504],[120.97231,17.50371],[120.98984,17.49358],[120.99546,17.48961],[120.99273,17.4833],[120.9928,17.47821],[120.99919,17.46519],[120.99965,17.45461],[120.99938,17.43262],[120.99281,17.41781]]]}},{"type":"Feature","id":1255,"properties":{"area_key":"ABRA|DANGLAS","name":"Danglas","short_name":"Danglas","province":"Abra","psgc":"140106000","is_city":false},"geometry":{"type":"MultiPolygon","coordinates":[[[[120.65775,17.6478],[120.65447,17.64575],[120.65478,17.64865],[120.65775,17.6478]]],[[[120.66854,17.65129],[120.66651,17.65098],[120.66587,17.65178],[120.66796,17.65314],[120.66854,17.65129]]],[[[120.68202,17.708],[120.67395,17.70232],[120.6785,17.69365],[120.67562,17.68639],[120.66979,17.67743],[120.66254,17.67233],[120.63779,17.67458],[120.6307,17.67161],[120.62729,17.67247],[120.62507,17.68004],[120.61784,17.68274],[120.60899,17.67559],[120.6057,17.67658],[120.59757,17.67373],[120.56505,17.70689],[120.54274,17.73532],[120.57182,17.78603],[120.58279,17.7991],[120.60223,17.80928],[120.6246,17.81463],[120.63328,17.81909],[120.67172,17.82802],[120.67282,17.73327],[120.67511,17.71845],[120.68202,17.708]]]]}},{"type":"Feature","id":1256,"properties":{"area_key":"ABRA|DOLORES","name":"Dolores","short_name":"Dolores","province":"Abra","psgc":"140107000","is_city":false},"geometry":{"type":"Polygon","coordinates":[[[120.72407,17.66913],[120.72945,17.65961],[120.73635,17.66207],[120.74676,17.66055],[120.75009,17.66433],[120.75744,17.66173],[120.75979,17.66462],[120.76612,17.66647],[120.77803,17.66674],[120.77673,17.65721],[120.77095,17.64071],[120.76351,17.63185],[120.76017,17.63356],[120.75752,17.62868],[120.75415,17.627],[120.74773,17.63086],[120.7505,17.62181],[120.74527,17.62198],[120.74199,17.61705],[120.73991,17.61758],[120.73924,17.62273],[120.72733,17.62838],[120.72499,17.62719],[120.72047,17.62856],[120.71519,17.62219],[120.70863,17.62426],[120.70381,17.62347],[120.69166,17.63373],[120.66818,17.6368],[120.65702,17.63482],[120.64988,17.63695],[120.66273,17.64634],[120.66555,17.6441],[120.66742,17.64662],[120.67191,17.64758],[120.68201,17.65801],[120.6908,17.66115],[120.6931,17.6645],[120.69924,17.66771],[120.70521,17.67781],[120.72407,17.66913]]]}},{"type":"Feature","id":1257,"properties":{"area_key":"ABRA|LA PAZ","name":"La Paz","short_name":"La Paz","province":"Abra","psgc":"140108000","is_city":false},"geometry":{"type":"Polygon","coordinates":[[[120.70876,17.71055],[120.70555,17.6958],[120.70734,17.68356],[120.70474,17.67547],[120.7012,17.67305],[120.69924,17.66771],[120.6931,17.6645],[120.6908,17.66115],[120.68201,17.65801],[120.67191,17.64758],[120.66742,17.64662],[120.66555,17.6441],[120.66273,17.64634],[120.64009,17.62907],[120.62824,17.63019],[120.61649,17.62516],[120.60875,17.62596],[120.60742,17.62805],[120.60872,17.632],[120.59627,17.65349],[120.60405,17.66709],[120.59757,17.67373],[120.6057,17.67658],[120.60899,17.67559],[120.61784,17.68274],[120.62507,17.68004],[120.62729,17.67247],[120.6307,17.67161],[120.63779,17.67458],[120.66254,17.67233],[120.66979,17.67743],[120.67801,17.6914],[120.67775,17.69564],[120.6738,17.7013],[120.67846,17.70713],[120.69512,17.71035],[120.70876,17.71055]],[[120.66651,17.65098],[120.66866,17.65137],[120.66869,17.6528],[120.66714,17.65284],[120.66651,17.65098]],[[120.65478,17.64865],[120.65541,17.6446],[120.65775,17.6478],[120.65478,17.64865]]]}},{"type":"Feature","id":1258,"properties":{"area_key":"ABRA|LACUB","name":"Lacub","short_name":"Lacub","province":"Abra","psgc":"140109000","is_city":false},"geometry":{"type":"Polygon","coordinates":[[[120.91635,17.74419],[120.94422,17.73486],[121.10883,17.73945],[121.11067,17.68489],[121.10779,17.68371],[121.10329,17.6751],[121.09452,17.67082],[121.08981,17.67093],[121.0687,17.68467],[121.05474,17.68529],[121.04605,17.67348],[121.04124,17.65995],[121.0339,17.64881],[121.02436,17.64769],[121.0171,17.65223],[120.99861,17.65721],[120.96567,17.64387],[120.96913,17.63793],[120.95549,17.62794],[120.95667,17.64844],[120.91282,17.64273],[120.89252,17.64578],[120.83943,17.67816],[120.84843,17.69571],[120.88591,17.75448],[120.90669,17.76386],[120.91635,17.74419]]]}},{"type":"Feature","id":1259,"properties":{"area_key":"ABRA|LAGANGILANG","name":"Lagangilang","short_name":"Lagangilang","province":"Abra","psgc":"140110000","is_city":false},"geometry":{"type":"Polygon","coordinates":[[[120.83157,17.64722],[120.81205,17.62932],[120.7925,17.60157],[120.79063,17.58983],[120.78348,17.57627],[120.77469,17.58244],[120.76922,17.57697],[120.75844,17.57333],[120.73551,17.58351],[120.72882,17.57782],[120.72225,17.58557],[120.71532,17.58871],[120.72164,17.61686],[120.71519,17.62219],[120.71992,17.6282],[120.73346,17.62666],[120.73924,17.62273],[120.73991,17.61758],[120.74199,17.61705],[120.74527,17.62198],[120.7505,17.62181],[120.74773,17.63086],[120.75415,17.627],[120.75752,17.62868],[120.76017,17.63356],[120.76351,17.63185],[120.77095,17.64071],[120.77673,17.65721],[120.77803,17.66674],[120.77943,17.70517],[120.78387,17.71115],[120.78951,17.71269],[120.80798,17.69782],[120.83413,17.6879],[120.83943,17.67816],[120.8303,17.65618],[120.83157,17.64722]]]}},{"type":"Feature","id":1260,"properties":{"area_key":"ABRA|LAGAYAN","name":"Lagayan","short_name":"Lagayan","province":"Abra","psgc":"140111000","is_city":false},"geometry":{"type":"Polygon","coordinates":[[[120.76326,17.73669],[120.75807,17.72588],[120.73742,17.72713],[120.71702,17.73288],[120.71029,17.72624],[120.70876,17.71055],[120.68202,17.708],[120.67511,17.71845],[120.67282,17.73327],[120.67172,17.82802],[120.69087,17.83458],[120.71309,17.85996],[120.77004,17.81136],[120.77069,17.76765],[120.7863,17.76363],[120.76326,17.73669]]]}},{"type":"Feature","id":1261,"properties":{"area_key":"ABRA|LANGIDEN","name":"Langiden","short_name":"Langiden","province":"Abra","psgc":"140112000","is_city":false},"geometry":{"type":"Polygon","coordinates":[[[120.59202,17.58819],[120.59926,17.57462],[120.59755,17.56959],[120.59149,17.5716],[120.58383,17.57832],[120.57827,17.57936],[120.57078,17.57605],[120.5673,17.57075],[120.56285,17.5699],[120.55292,17.57817],[120.54862,17.57909],[120.53912,17.57237],[120.53763,17.55973],[120.4891,17.5608],[120.48758,17.56699],[120.4881,17.58462],[120.49782,17.62513],[120.51639,17.64924],[120.52969,17.69294],[120.55274,17.66529],[120.56592,17.62643],[120.57507,17.61675],[120.57747,17.6022],[120.58213,17.59562],[120.59202,17.58819]]]}},{"type":"Feature","id":1262,"properties":{"area_key":"ABRA|LICUAN BAAY","name":"Licuan-Baay","short_name":"Licuan-Baay","province":"Abra","psgc":"140113000","is_city":false},"geometry":{"type":"Polygon","coordinates":[[[120.89252,17.64578],[120.91282,17.64273],[120.95667,17.64844],[120.95549,17.62794],[120.94962,17.6236],[120.95216,17.61854],[120.95024,17.61079],[120.9351,17.57377],[120.93279,17.56075],[120.94304,17.55531],[120.95146,17.54459],[120.95213,17.53487],[120.94097,17.52204],[120.95264,17.50862],[120.97231,17.50371],[120.93222,17.48504],[120.82518,17.50272],[120.80865,17.51761],[120.79711,17.53277],[120.78401,17.56023],[120.78155,17.56172],[120.78531,17.56888],[120.78348,17.57627],[120.79063,17.58983],[120.7925,17.60157],[120.81205,17.62932],[120.83157,17.64722],[120.8303,17.65618],[120.83943,17.67816],[120.89252,17.64578]]]}},{"type":"Feature","id":1263,"properties":{"area_key":"ABRA|LUBA","name":"Luba","short_name":"Luba","province":"Abra","psgc":"140114000","is_city":false},"geometry":{"type":"Polygon","coordinates":[[[120.68143,17.39224],[120.70745,17.37034],[120.76312,17.3717],[120.76748,17.3393],[120.73997,17.31749],[120.72693,17.3101],[120.71013,17.28551],[120.68714,17.26308],[120.6784,17.25684],[120.63617,17.27563],[120.61928,17.29443],[120.62784,17.30998],[120.62647,17.31114],[120.62654,17.32198],[120.62155,17.32605],[120.64364,17.34669],[120.64468,17.3556],[120.65182,17.35979],[120.65802,17.37906],[120.6651,17.38763],[120.67459,17.39215],[120.68143,17.39224]]]}},{"type":"Feature","id":1264,"properties":{"area_key":"ABRA|MALIBCONG","name":"Malibcong","short_name":"Malibcong","province":"Abra","psgc":"140115000","is_city":false},"geometry":{"type":"Polygon","coordinates":[[[121.08962,17.65586],[121.09046,17.64348],[121.09831,17.63088],[121.0904,17.62129],[121.08919,17.61367],[121.09396,17.6069],[121.1111,17.59868],[121.11691,17.58618],[121.11614,17.58134],[121.11156,17.5761],[121.11228,17.57089],[121.10902,17.55399],[121.10209,17.54928],[121.07316,17.54934],[121.06993,17.54777],[121.05939,17.52842],[121.03789,17.51824],[121.03364,17.51199],[121.0281,17.5079],[120.99978,17.49486],[120.99546,17.48961],[120.97231,17.50371],[120.95264,17.50862],[120.94097,17.52204],[120.95213,17.53487],[120.95146,17.54459],[120.94304,17.55531],[120.93279,17.56075],[120.9351,17.57377],[120.95024,17.61079],[120.95216,17.61854],[120.94962,17.6236],[120.96913,17.63793],[120.96567,17.64387],[120.99861,17.65721],[121.0171,17.65223],[121.02436,17.64769],[121.0339,17.64881],[121.04124,17.65995],[121.04605,17.67348],[121.05474,17.68529],[121.0687,17.68467],[121.08981,17.67093],[121.09113,17.66443],[121.08962,17.65586]]]}},{"type":"Feature","id":1265,"properties":{"area_key":"ABRA|MANABO","name":"Manabo","short_name":"Manabo","province":"Abra","psgc":"140116000","is_city":false},"geometry":{"type":"Polygon","coordinates":[[[120.70551,17.4543],[120.70724,17.45271],[120.72131,17.453],[120.72881,17.45661],[120.74273,17.44851],[120.74836,17.44956],[120.74591,17.44474],[120.75119,17.44112],[120.7405,17.43363],[120.75198,17.42679],[120.75582,17.41875],[120.76019,17.41587],[120.76312,17.3717],[120.70745,17.37034],[120.68189,17.39219],[120.67388,17.40372],[120.66422,17.42756],[120.67583,17.45674],[120.70551,17.4543]]]}},{"type":"Feature","id":1266,"properties":{"area_key":"ABRA|PENARRUBIA","name":"Peñarrubia","short_name":"Penarrubia","province":"Abra","psgc":"140117000","is_city":false},"geometry":{"type":"Polygon","coordinates":[[[120.65848,17.57373],[120.67875,17.56229],[120.68079,17.56501],[120.68981,17.56179],[120.68576,17.54752],[120.69482,17.53626],[120.69749,17.50988],[120.69065,17.50324],[120.65539,17.508],[120.64813,17.5207],[120.62669,17.5217],[120.63375,17.52993],[120.63236,17.53782],[120.6385,17.55568],[120.63482,17.55938],[120.63822,17.56301],[120.63781,17.56851],[120.65166,17.57367],[120.65848,17.57373]]]}},{"type":"Feature","id":1267,"properties":{"area_key":"ABRA|PIDIGAN","name":"Pidigan","short_name":"Pidigan","province":"Abra","psgc":"140118000","is_city":false},"geometry":{"type":"Polygon","coordinates":[[[120.59149,17.5716],[120.61078,17.56255],[120.60983,17.55952],[120.60633,17.55786],[120.60665,17.53831],[120.61257,17.5303],[120.60916,17.51136],[120.6036,17.51189],[120.59483,17.50797],[120.58889,17.49216],[120.57589,17.49101],[120.55284,17.51558],[120.55157,17.52523],[120.54749,17.52573],[120.53499,17.53816],[120.53791,17.5386],[120.54048,17.54262],[120.53763,17.55973],[120.53846,17.56983],[120.54068,17.57449],[120.54654,17.57873],[120.55292,17.57817],[120.56285,17.5699],[120.56515,17.5699],[120.5733,17.57802],[120.57827,17.57936],[120.58383,17.57832],[120.59149,17.5716]]]}},{"type":"Feature","id":1268,"properties":{"area_key":"ABRA|PILAR","name":"Pilar","short_name":"Pilar","province":"Abra","psgc":"140119000","is_city":false},"geometry":{"type":"Polygon","coordinates":[[[120.5782,17.43837],[120.62505,17.43311],[120.62922,17.42257],[120.62284,17.41295],[120.621,17.40372],[120.62419,17.39482],[120.621,17.3772],[120.61578,17.35974],[120.60701,17.35633],[120.60001,17.35604],[120.58283,17.33693],[120.58402,17.33349],[120.59085,17.33018],[120.596,17.32193],[120.59361,17.31019],[120.56676,17.30716],[120.56461,17.31144],[120.55901,17.31167],[120.55753,17.31673],[120.53861,17.3436],[120.53781,17.35699],[120.54281,17.37176],[120.57487,17.42311],[120.57786,17.43001],[120.5782,17.43837]]]}},{"type":"Feature","id":1269,"properties":{"area_key":"ABRA|SALLAPADAN","name":"Sallapadan","short_name":"Sallapadan","province":"Abra","psgc":"140120000","is_city":false},"geometry":{"type":"Polygon","coordinates":[[[120.78613,17.45023],[120.78493,17.4159],[120.75852,17.41568],[120.75198,17.42679],[120.7405,17.43363],[120.75119,17.44112],[120.74591,17.44474],[120.74836,17.44956],[120.74273,17.44851],[120.72881,17.45661],[120.74785,17.53455],[120.76143,17.53626],[120.78401,17.56023],[120.79711,17.53277],[120.80865,17.51761],[120.82518,17.50272],[120.93222,17.48504],[120.88364,17.46797],[120.82271,17.45317],[120.78613,17.45023]]]}},{"type":"Feature","id":1270,"properties":{"area_key":"ABRA|SAN ISIDRO","name":"San Isidro","short_name":"San Isidro","province":"Abra","psgc":"140121000","is_city":false},"geometry":{"type":"Polygon","coordinates":[[[120.61914,17.50158],[120.63776,17.49068],[120.64148,17.49201],[120.65459,17.50081],[120.65553,17.50798],[120.66525,17.50048],[120.67165,17.49118],[120.67397,17.47072],[120.6527,17.46908],[120.64872,17.4649],[120.62588,17.47966],[120.61964,17.46875],[120.6139,17.46591],[120.61529,17.44934],[120.61823,17.4409],[120.62085,17.43994],[120.62505,17.43311],[120.5782,17.43837],[120.58166,17.47183],[120.59483,17.50797],[120.6036,17.51189],[120.60916,17.51136],[120.61914,17.50158]]]}},{"type":"Feature","id":1271,"properties":{"area_key":"ABRA|SAN JUAN","name":"San Juan","short_name":"San Juan","province":"Abra","psgc":"140122000","is_city":false},"geometry":{"type":"Polygon","coordinates":[[[120.81139,17.73995],[120.78951,17.71269],[120.78387,17.71115],[120.77943,17.70517],[120.77803,17.66674],[120.76612,17.66647],[120.75979,17.66462],[120.75744,17.66173],[120.75009,17.66433],[120.74694,17.66059],[120.73635,17.66207],[120.72909,17.65958],[120.72407,17.66913],[120.70521,17.67781],[120.7075,17.68523],[120.70555,17.6958],[120.70929,17.70866],[120.71029,17.72624],[120.71702,17.73288],[120.73742,17.72713],[120.75807,17.72588],[120.76503,17.73957],[120.7863,17.76363],[120.81139,17.73995]]]}},{"type":"Feature","id":1272,"properties":{"area_key":"ABRA|SAN QUINTIN","name":"San Quintin","short_name":"San Quintin","province":"Abra","psgc":"140123000","is_city":false},"geometry":{"type":"Polygon","coordinates":[[[120.56549,17.50176],[120.54334,17.4922],[120.53374,17.49841],[120.51757,17.49961],[120.51159,17.49823],[120.49603,17.48731],[120.47442,17.48425],[120.47028,17.48871],[120.46779,17.49567],[120.46817,17.51473],[120.47574,17.53442],[120.48754,17.54498],[120.48531,17.54794],[120.48965,17.55323],[120.4891,17.5608],[120.53763,17.55973],[120.54048,17.54262],[120.53791,17.5386],[120.53499,17.53816],[120.54749,17.52573],[120.55157,17.52523],[120.55284,17.51558],[120.56549,17.50176]]]}},{"type":"Feature","id":1273,"properties":{"area_key":"ABRA|TAYUM","name":"Tayum","short_name":"Tayum","province":"Abra","psgc":"140124000","is_city":false},"geometry":{"type":"Polygon","coordinates":[[[120.64988,17.63695],[120.65702,17.63482],[120.66818,17.6368],[120.69166,17.63373],[120.70168,17.62453],[120.71306,17.62323],[120.72064,17.61891],[120.72145,17.61269],[120.71532,17.58871],[120.69194,17.57095],[120.68981,17.56179],[120.67699,17.57578],[120.66543,17.58188],[120.65208,17.59586],[120.62915,17.61302],[120.62748,17.623],[120.61921,17.62751],[120.62824,17.63019],[120.63911,17.6287],[120.64988,17.63695]]]}},{"type":"Feature","id":1274,"properties":{"area_key":"ABRA|TINEG","name":"Tineg","short_name":"Tineg","province":"Abra","psgc":"140125000","is_city":false},"geometry":{"type":"Polygon","coordinates":[[[120.95633,17.95809],[120.97201,17.94607],[120.98469,17.94175],[120.99158,17.93134],[121.00019,17.90313],[121.00247,17.85332],[121.00603,17.84826],[121.01063,17.84453],[121.01915,17.84182],[121.03641,17.84252],[121.06055,17.8479],[121.07235,17.84505],[121.081,17.83903],[121.09541,17.80744],[121.10883,17.73945],[120.94422,17.73486],[120.91635,17.74419],[120.90669,17.76386],[120.88591,17.75448],[120.84843,17.69571],[120.83943,17.67816],[120.83413,17.6879],[120.80798,17.69782],[120.78951,17.71269],[120.81139,17.73995],[120.7863,17.76363],[120.77069,17.76765],[120.77004,17.81136],[120.71309,17.85996],[120.71785,17.87333],[120.72694,17.89055],[120.7326,17.89617],[120.74365,17.9014],[120.78375,17.91124],[120.81006,17.93505],[120.82604,17.95476],[120.83369,17.95945],[120.8502,17.96286],[120.86494,17.96152],[120.89459,17.95147],[120.90997,17.94993],[120.9204,17.95626],[120.93126,17.97364],[120.94547,17.95918],[120.95633,17.95809]]]}},{"type":"Feature","id":1275,"properties":{"area_key":"ABRA|TUBO","name":"Tubo","short_name":"Tubo","province":"Abra","psgc":"140126000","is_city":false},"geometry":{"type":"Polygon","coordinates":[[[120.95622,17.34071],[120.94474,17.32207],[120.93785,17.31544],[120.93024,17.29431],[120.92483,17.28479],[120.92632,17.27339],[120.91792,17.2671],[120.91664,17.25894],[120.91223,17.25367],[120.91076,17.21308],[120.89105,17.19082],[120.88231,17.18872],[120.85315,17.18744],[120.82752,17.18124],[120.80475,17.17127],[120.7962,17.16185],[120.78622,17.15885],[120.75133,17.15526],[120.74409,17.16244],[120.73937,17.15915],[120.73402,17.16807],[120.70276,17.17497],[120.69163,17.17273],[120.68675,17.18075],[120.68785,17.1841],[120.68055,17.18725],[120.67927,17.1914],[120.67213,17.19285],[120.6729,17.19548],[120.68048,17.20037],[120.6762,17.20727],[120.676,17.21133],[120.68203,17.21806],[120.68347,17.22615],[120.67988,17.23597],[120.68299,17.24315],[120.67188,17.24265],[120.66949,17.24461],[120.67006,17.24628],[120.67671,17.24929],[120.6784,17.25684],[120.68714,17.26308],[120.71013,17.28551],[120.72693,17.3101],[120.73997,17.31749],[120.76748,17.3393],[120.9115,17.34219],[120.95622,17.34071]]]}},{"type":"Feature","id":1276,"properties":{"area_key":"ABRA|VILLAVICIOSA","name":"Villaviciosa","short_name":"Villaviciosa","province":"Abra","psgc":"140127000","is_city":false},"geometry":{"type":"Polygon","coordinates":[[[120.62608,17.47954],[120.64872,17.4649],[120.6527,17.46908],[120.67397,17.47072],[120.67583,17.45674],[120.66422,17.42756],[120.67388,17.40372],[120.68189,17.39219],[120.67459,17.39215],[120.6651,17.38763],[120.65802,17.37906],[120.65182,17.35979],[120.64468,17.3556],[120.64364,17.34669],[120.62155,17.32605],[120.62654,17.32198],[120.62647,17.31114],[120.62784,17.30998],[120.61928,17.29443],[120.61195,17.30222],[120.59361,17.31019],[120.596,17.32193],[120.59085,17.33018],[120.58402,17.33349],[120.58283,17.33693],[120.60001,17.35604],[120.60701,17.35633],[120.61578,17.35974],[120.62326,17.38592],[120.62416,17.39608],[120.621,17.40372],[120.62268,17.4125],[120.62922,17.42257],[120.62339,17.43609],[120.61823,17.4409],[120.61374,17.45467],[120.6139,17.46591],[120.61964,17.46875],[120.62608,17.47954]]]}},{"type":"Feature","id":1277,"properties":{"area_key":"BENGUET|ATOK","name":"Atok","short_name":"Atok","province":"Benguet","psgc":"141101000","is_city":false},"geometry":{"type":"Polygon","coordinates":[[[120.78635,16.67899],[120.78395,16.66628],[120.78587,16.65531],[120.78105,16.64315],[120.78398,16.63078],[120.77688,16.62787],[120.77456,16.61668],[120.76625,16.60333],[120.75456,16.56989],[120.74882,16.56348],[120.74489,16.56188],[120.73516,16.54879],[120.72817,16.53333],[120.70859,16.52038],[120.70151,16.5142],[120.69599,16.50604],[120.67817,16.4981],[120.66969,16.51079],[120.66309,16.51626],[120.6599,16.51635],[120.65998,16.5185],[120.65002,16.53022],[120.64331,16.56283],[120.64433,16.60353],[120.66412,16.62081],[120.67818,16.6287],[120.6875,16.64457],[120.71276,16.64362],[120.71218,16.64144],[120.71642,16.64528],[120.71929,16.6428],[120.72222,16.64352],[120.72321,16.64656],[120.72784,16.64931],[120.72794,16.65831],[120.73501,16.66375],[120.73321,16.66766],[120.73068,16.66862],[120.73193,16.67153],[120.72932,16.67241],[120.73083,16.67749],[120.75926,16.67689],[120.77746,16.68021],[120.78635,16.67899]]]}},{"type":"Feature","id":1278,"properties":{"area_key":"BENGUET|BAGUIO","name":"Baguio City","short_name":"City of Baguio","province":"Benguet","psgc":"141102000","is_city":true},"geometry":{"type":"Polygon","coordinates":[[[120.54516,16.43452],[120.59513,16.4327],[120.60256,16.43141],[120.60254,16.42991],[120.60797,16.43165],[120.61458,16.42856],[120.62961,16.42861],[120.6332,16.39679],[120.63605,16.38614],[120.63419,16.36272],[120.62852,16.36314],[120.62032,16.35748],[120.61205,16.35914],[120.60517,16.36409],[120.6054,16.36638],[120.60127,16.36543],[120.56953,16.37025],[120.56813,16.3755],[120.564,16.38007],[120.56417,16.3907],[120.56772,16.39179],[120.57295,16.39016],[120.57086,16.39222],[120.57126,16.39461],[120.56919,16.39982],[120.55458,16.40583],[120.55693,16.40816],[120.54426,16.42839],[120.54516,16.43452]]]}},{"type":"Feature","id":1279,"properties":{"area_key":"BENGUET|BAKUN","name":"Bakun","short_name":"Bakun","province":"Benguet","psgc":"141103000","is_city":false},"geometry":{"type":"Polygon","coordinates":[[[120.66956,16.91198],[120.7341,16.91469],[120.73586,16.91298],[120.73239,16.912],[120.73066,16.90762],[120.73195,16.90568],[120.72897,16.90465],[120.73754,16.90267],[120.73852,16.90041],[120.73581,16.89808],[120.73225,16.89853],[120.73175,16.89567],[120.73342,16.89476],[120.73014,16.89338],[120.72931,16.8865],[120.73436,16.88693],[120.73197,16.88367],[120.73492,16.88005],[120.73258,16.8782],[120.73533,16.87302],[120.73749,16.87466],[120.74361,16.82922],[120.74584,16.83124],[120.74797,16.8301],[120.74581,16.82622],[120.74744,16.82055],[120.7536,16.81897],[120.75492,16.81634],[120.75737,16.8177],[120.75789,16.81544],[120.76066,16.81674],[120.76427,16.81506],[120.76741,16.8113],[120.7687,16.80348],[120.76741,16.80124],[120.78448,16.7766],[120.80405,16.76697],[120.80347,16.76539],[120.80577,16.76667],[120.80694,16.76532],[120.80438,16.76229],[120.80615,16.76134],[120.80506,16.75594],[120.80097,16.75656],[120.80093,16.74745],[120.79851,16.74383],[120.80095,16.73855],[120.80047,16.73271],[120.79676,16.73135],[120.796,16.72893],[120.78728,16.72915],[120.7863,16.72565],[120.78078,16.72214],[120.77118,16.71987],[120.77065,16.71777],[120.76652,16.71594],[120.76605,16.71238],[120.74529,16.714],[120.73395,16.72457],[120.72815,16.72761],[120.69128,16.78172],[120.68261,16.78592],[120.67934,16.78364],[120.67231,16.76062],[120.6668,16.75405],[120.65135,16.74324],[120.62727,16.73453],[120.61799,16.73413],[120.59904,16.73832],[120.58962,16.74718],[120.58826,16.76744],[120.58624,16.77083],[120.588,16.77615],[120.58502,16.8201],[120.58602,16.83666],[120.61018,16.84002],[120.61305,16.85699],[120.62454,16.87778],[120.64433,16.89737],[120.65715,16.90146],[120.66008,16.90899],[120.66956,16.91198]]]}},{"type":"Feature","id":1280,"properties":{"area_key":"BENGUET|BOKOD","name":"Bokod","short_name":"Bokod","province":"Benguet","psgc":"141104000","is_city":false},"geometry":{"type":"Polygon","coordinates":[[[120.80566,16.56314],[120.86008,16.55567],[120.89211,16.55846],[120.88321,16.50539],[120.88943,16.43607],[120.87814,16.42158],[120.87116,16.38424],[120.86392,16.37481],[120.86035,16.35339],[120.84552,16.3195],[120.82318,16.31853],[120.81593,16.31315],[120.81312,16.30356],[120.80005,16.30485],[120.7961,16.33207],[120.78775,16.36383],[120.75671,16.41799],[120.70573,16.42336],[120.71801,16.43881],[120.72131,16.4654],[120.71724,16.47257],[120.71534,16.47288],[120.717,16.47496],[120.71387,16.4741],[120.71403,16.47608],[120.70765,16.47664],[120.69676,16.47152],[120.69243,16.48163],[120.70049,16.48627],[120.69408,16.49179],[120.68144,16.4941],[120.67817,16.4981],[120.69599,16.50604],[120.70151,16.5142],[120.70859,16.52038],[120.72817,16.53333],[120.73516,16.54879],[120.74489,16.56188],[120.74882,16.56348],[120.75456,16.56989],[120.79639,16.56838],[120.80566,16.56314]],[[120.74578,16.48887],[120.744,16.48381],[120.74561,16.48064],[120.74143,16.47716],[120.74476,16.47632],[120.74399,16.47187],[120.73589,16.47418],[120.74188,16.47053],[120.74109,16.46466],[120.74637,16.45886],[120.74719,16.46377],[120.75194,16.46799],[120.74995,16.4713],[120.75213,16.47484],[120.75183,16.47844],[120.75558,16.47982],[120.76005,16.47796],[120.76321,16.4798],[120.76624,16.47797],[120.76723,16.48064],[120.76455,16.48322],[120.76768,16.48611],[120.76305,16.48668],[120.76178,16.48192],[120.75858,16.48198],[120.7556,16.48337],[120.75555,16.48547],[120.75175,16.48261],[120.75327,16.48677],[120.75143,16.48699],[120.74742,16.48229],[120.74601,16.4827],[120.7477,16.48657],[120.74578,16.48887]]]}},{"type":"Feature","id":1281,"properties":{"area_key":"BENGUET|BUGUIAS","name":"Buguias","short_name":"Buguias","province":"Benguet","psgc":"141105000","is_city":false},"geometry":{"type":"Polygon","coordinates":[[[120.85674,16.84186],[120.87011,16.82958],[120.87464,16.82733],[120.88616,16.82741],[120.89301,16.82106],[120.89232,16.81487],[120.89861,16.77632],[120.8938,16.74359],[120.89433,16.69284],[120.86492,16.68286],[120.84038,16.678],[120.79826,16.67672],[120.77746,16.68021],[120.75862,16.67691],[120.75639,16.68854],[120.75273,16.69213],[120.74529,16.714],[120.76605,16.71238],[120.76652,16.71594],[120.77065,16.71777],[120.77118,16.71987],[120.78078,16.72214],[120.7863,16.72565],[120.78728,16.72915],[120.796,16.72893],[120.79676,16.73135],[120.80047,16.73271],[120.80095,16.73855],[120.79851,16.74383],[120.80093,16.74745],[120.80097,16.75656],[120.80506,16.75594],[120.80615,16.76134],[120.80438,16.76229],[120.80694,16.76522],[120.80577,16.76667],[120.80338,16.76545],[120.80333,16.76932],[120.80506,16.76989],[120.8082,16.78017],[120.80998,16.77843],[120.81121,16.78285],[120.80996,16.78323],[120.81376,16.79256],[120.82958,16.81461],[120.83329,16.82492],[120.83558,16.827],[120.8379,16.82605],[120.8453,16.83535],[120.84813,16.83626],[120.847,16.83833],[120.84883,16.84003],[120.85674,16.84186]]]}},{"type":"Feature","id":1282,"properties":{"area_key":"BENGUET|ITOGON","name":"Itogon","short_name":"Itogon","province":"Benguet","psgc":"141106000","is_city":false},"geometry":{"type":"Polygon","coordinates":[[[120.70765,16.47664],[120.717,16.47496],[120.71534,16.47288],[120.71724,16.47257],[120.72131,16.4654],[120.71801,16.43881],[120.70573,16.42336],[120.75671,16.41799],[120.78775,16.36383],[120.7961,16.33207],[120.80005,16.30485],[120.76897,16.19803],[120.69775,16.191],[120.68197,16.18393],[120.63237,16.18395],[120.63063,16.18585],[120.63265,16.18987],[120.62941,16.1929],[120.63017,16.1962],[120.62555,16.19799],[120.63573,16.2235],[120.6371,16.25768],[120.63798,16.25998],[120.64327,16.26182],[120.6468,16.27743],[120.64577,16.28222],[120.64085,16.28806],[120.63972,16.29982],[120.64666,16.30542],[120.64908,16.311],[120.6468,16.32859],[120.63999,16.33263],[120.6318,16.34491],[120.63148,16.35355],[120.63359,16.35788],[120.62852,16.36314],[120.63419,16.36272],[120.63605,16.38614],[120.6332,16.39679],[120.62961,16.42861],[120.64207,16.42895],[120.64558,16.43762],[120.64363,16.44262],[120.6591,16.45804],[120.65863,16.45561],[120.66093,16.45486],[120.70765,16.47664]],[[120.72272,16.40237],[120.72615,16.40104],[120.71963,16.40064],[120.71772,16.39421],[120.71888,16.3923],[120.7245,16.39114],[120.72853,16.39291],[120.72939,16.39582],[120.72726,16.39587],[120.72704,16.39772],[120.73204,16.40116],[120.73068,16.4039],[120.72413,16.40364],[120.72414,16.40653],[120.72864,16.41001],[120.72882,16.4124],[120.72657,16.41248],[120.72252,16.40754],[120.72272,16.40237]],[[120.67802,16.39328],[120.67969,16.39645],[120.67959,16.3997],[120.67678,16.39559],[120.67802,16.39328]],[[120.65887,16.40073],[120.65891,16.40206],[120.65811,16.40132],[120.65887,16.40073]]]}},{"type":"Feature","id":1283,"properties":{"area_key":"BENGUET|KABAYAN","name":"Kabayan","short_name":"Kabayan","province":"Benguet","psgc":"141107000","is_city":false},"geometry":{"type":"Polygon","coordinates":[[[120.89433,16.69284],[120.91517,16.62996],[120.92951,16.60005],[120.90441,16.59536],[120.89211,16.55846],[120.85284,16.55584],[120.80566,16.56314],[120.79639,16.56838],[120.75456,16.56989],[120.76625,16.60333],[120.77456,16.61668],[120.77688,16.62787],[120.78398,16.63078],[120.78105,16.64315],[120.78587,16.65531],[120.78395,16.66628],[120.78635,16.67899],[120.79826,16.67672],[120.84038,16.678],[120.86492,16.68286],[120.89433,16.69284]]]}},{"type":"Feature","id":1284,"properties":{"area_key":"BENGUET|KAPANGAN","name":"Kapangan","short_name":"Kapangan","province":"Benguet","psgc":"141108000","is_city":false},"geometry":{"type":"Polygon","coordinates":[[[120.58222,16.69241],[120.66713,16.64362],[120.67119,16.63708],[120.67945,16.63065],[120.66984,16.62465],[120.66909,16.62231],[120.66412,16.62081],[120.64415,16.60317],[120.64319,16.56446],[120.64574,16.5515],[120.61801,16.54433],[120.58784,16.54341],[120.5689,16.54738],[120.51263,16.55026],[120.51636,16.55802],[120.51338,16.56226],[120.51708,16.56862],[120.51592,16.57105],[120.51204,16.5717],[120.51786,16.59469],[120.54122,16.63801],[120.55565,16.65759],[120.56506,16.66977],[120.57151,16.67251],[120.57452,16.67126],[120.58222,16.69241]]]}},{"type":"Feature","id":1285,"properties":{"area_key":"BENGUET|KIBUNGAN","name":"Kibungan","short_name":"Kibungan","province":"Benguet","psgc":"141109000","is_city":false},"geometry":{"type":"Polygon","coordinates":[[[120.69128,16.78172],[120.72815,16.72761],[120.73395,16.72457],[120.74529,16.714],[120.75273,16.69213],[120.75639,16.68854],[120.75634,16.68272],[120.75907,16.67987],[120.75862,16.67691],[120.73364,16.6784],[120.73027,16.67696],[120.72932,16.67241],[120.73193,16.67153],[120.73068,16.66862],[120.73321,16.66766],[120.73501,16.66375],[120.72794,16.65831],[120.72784,16.64931],[120.72321,16.64656],[120.72222,16.64352],[120.71929,16.6428],[120.71642,16.64528],[120.71218,16.64144],[120.71276,16.64362],[120.6875,16.64457],[120.67945,16.63065],[120.67119,16.63708],[120.66713,16.64362],[120.58222,16.69241],[120.59904,16.73832],[120.61799,16.73413],[120.62727,16.73453],[120.65135,16.74324],[120.6668,16.75405],[120.67231,16.76062],[120.67934,16.78364],[120.68261,16.78592],[120.69128,16.78172]],[[120.67597,16.63751],[120.67802,16.63671],[120.67835,16.63884],[120.67608,16.63997],[120.67597,16.63751]]]}},{"type":"Feature","id":1286,"properties":{"area_key":"BENGUET|LA TRINIDAD","name":"La Trinidad","short_name":"La Trinidad","province":"Benguet","psgc":"141110000","is_city":false},"geometry":{"type":"Polygon","coordinates":[[[120.57764,16.51366],[120.58288,16.50449],[120.58841,16.50068],[120.59879,16.49672],[120.60239,16.49737],[120.62011,16.48976],[120.63002,16.47049],[120.64948,16.46572],[120.65059,16.46356],[120.65241,16.46386],[120.65327,16.45993],[120.6591,16.45804],[120.64363,16.44262],[120.64558,16.43762],[120.64207,16.42895],[120.61458,16.42856],[120.60797,16.43165],[120.60254,16.42991],[120.60256,16.43141],[120.59513,16.4327],[120.54465,16.43439],[120.54357,16.43672],[120.54887,16.45694],[120.5527,16.46477],[120.56043,16.51032],[120.5693,16.50802],[120.57764,16.51366]]]}},{"type":"Feature","id":1287,"properties":{"area_key":"BENGUET|MANKAYAN","name":"Mankayan","short_name":"Mankayan","province":"Benguet","psgc":"141111000","is_city":false},"geometry":{"type":"Polygon","coordinates":[[[120.75882,16.9265],[120.77062,16.92119],[120.78527,16.92134],[120.79614,16.90045],[120.8012,16.89877],[120.81173,16.89621],[120.82131,16.90167],[120.84132,16.90664],[120.85106,16.89794],[120.85101,16.87432],[120.85423,16.86093],[120.85201,16.85773],[120.85643,16.854],[120.85674,16.84186],[120.84883,16.84003],[120.847,16.83833],[120.84813,16.83626],[120.8453,16.83535],[120.8379,16.82605],[120.83558,16.827],[120.83305,16.82463],[120.82958,16.81461],[120.81376,16.79256],[120.80996,16.78323],[120.81121,16.78285],[120.80998,16.77843],[120.8082,16.78017],[120.80506,16.76989],[120.80333,16.76932],[120.80405,16.76697],[120.78448,16.7766],[120.76741,16.80124],[120.7687,16.80348],[120.76615,16.81298],[120.76247,16.81622],[120.75789,16.81544],[120.75777,16.81762],[120.75492,16.81634],[120.7536,16.81897],[120.74991,16.81869],[120.74744,16.82055],[120.74581,16.82622],[120.74797,16.8301],[120.74584,16.83124],[120.74361,16.82922],[120.73749,16.87466],[120.73533,16.87302],[120.73258,16.8782],[120.73492,16.88005],[120.73197,16.88367],[120.73439,16.88508],[120.73414,16.88726],[120.72931,16.8865],[120.73014,16.89338],[120.73342,16.89476],[120.73175,16.89567],[120.73225,16.89853],[120.73581,16.89808],[120.73836,16.90218],[120.72897,16.90465],[120.73195,16.90568],[120.73066,16.90762],[120.73262,16.91226],[120.73581,16.9123],[120.73388,16.91396],[120.73576,16.91694],[120.73857,16.91598],[120.74669,16.92363],[120.74751,16.92655],[120.75882,16.9265]]]}},{"type":"Feature","id":1288,"properties":{"area_key":"BENGUET|SABLAN","name":"Sablan","short_name":"Sablan","province":"Benguet","psgc":"141112000","is_city":false},"geometry":{"type":"Polygon","coordinates":[[[120.57436,16.51119],[120.5693,16.50802],[120.56043,16.51032],[120.5527,16.46477],[120.54599,16.44553],[120.5116,16.44668],[120.47234,16.4515],[120.47311,16.47272],[120.46735,16.50271],[120.46915,16.50848],[120.47905,16.52282],[120.47821,16.53],[120.48809,16.54087],[120.51263,16.55026],[120.5689,16.54738],[120.56658,16.53598],[120.57545,16.51618],[120.57436,16.51119]]]}},{"type":"Feature","id":1289,"properties":{"area_key":"BENGUET|TUBA","name":"Tuba","short_name":"Tuba","province":"Benguet","psgc":"141113000","is_city":false},"geometry":{"type":"Polygon","coordinates":[[[120.51431,16.44655],[120.54599,16.44553],[120.54378,16.42979],[120.55693,16.40816],[120.5545,16.40597],[120.56919,16.39982],[120.57295,16.39016],[120.56772,16.39179],[120.56417,16.3907],[120.564,16.38007],[120.56813,16.3755],[120.56801,16.37162],[120.60127,16.36543],[120.6054,16.36638],[120.60517,16.36409],[120.61205,16.35914],[120.62032,16.35748],[120.62852,16.36314],[120.63359,16.35788],[120.63148,16.35355],[120.6318,16.34491],[120.63999,16.33263],[120.6468,16.32859],[120.64908,16.311],[120.64666,16.30542],[120.63972,16.29982],[120.64085,16.28806],[120.64577,16.28222],[120.64632,16.27397],[120.64327,16.26182],[120.63798,16.25998],[120.6371,16.25768],[120.63573,16.2235],[120.62555,16.19799],[120.63017,16.1962],[120.62941,16.1929],[120.63265,16.18987],[120.63051,16.18717],[120.63237,16.18395],[120.62994,16.18026],[120.55802,16.21842],[120.54275,16.22223],[120.5202,16.23344],[120.51182,16.2322],[120.5167,16.24948],[120.51257,16.25985],[120.5106,16.2758],[120.50655,16.28719],[120.50083,16.29336],[120.49737,16.31298],[120.49912,16.32306],[120.4906,16.33248],[120.49272,16.33569],[120.49615,16.33554],[120.4967,16.34014],[120.49326,16.34199],[120.49628,16.34544],[120.49472,16.34775],[120.4798,16.34871],[120.48161,16.35053],[120.47909,16.35537],[120.48227,16.35444],[120.4844,16.35889],[120.46904,16.37976],[120.44461,16.38613],[120.44903,16.38876],[120.4479,16.39241],[120.45382,16.39699],[120.45525,16.40488],[120.45027,16.4062],[120.45016,16.4086],[120.45331,16.40752],[120.45896,16.41668],[120.46746,16.41874],[120.46668,16.42375],[120.46997,16.42488],[120.46889,16.43263],[120.47234,16.4515],[120.51431,16.44655]]]}},{"type":"Feature","id":1290,"properties":{"area_key":"BENGUET|TUBLAY","name":"Tublay","short_name":"Tublay","province":"Benguet","psgc":"141114000","is_city":false},"geometry":{"type":"Polygon","coordinates":[[[120.64574,16.5515],[120.65002,16.53022],[120.65998,16.5185],[120.6599,16.51635],[120.66309,16.51626],[120.66969,16.51079],[120.68144,16.4941],[120.69408,16.49179],[120.70049,16.48627],[120.69243,16.48163],[120.69676,16.47152],[120.66093,16.45486],[120.65863,16.45561],[120.65885,16.45829],[120.65327,16.45993],[120.65241,16.46386],[120.65059,16.46356],[120.64948,16.46572],[120.63002,16.47049],[120.61827,16.49095],[120.60239,16.49737],[120.59868,16.49675],[120.58288,16.50449],[120.57764,16.51366],[120.57539,16.5128],[120.57545,16.51618],[120.56658,16.53598],[120.5689,16.54738],[120.58784,16.54341],[120.61801,16.54433],[120.64574,16.5515]]]}},{"type":"Feature","id":1291,"properties":{"area_key":"IFUGAO|BANAUE","name":"Banaue","short_name":"Banaue","province":"Ifugao","psgc":"142701000","is_city":false},"geometry":{"type":"Polygon","coordinates":[[[121.12909,17.00984],[121.14848,16.94866],[121.1652,16.93545],[121.16686,16.92923],[121.16562,16.92096],[121.16839,16.9214],[121.1676,16.91913],[121.16963,16.91844],[121.16731,16.90515],[121.16998,16.9021],[121.16697,16.89987],[121.17113,16.90015],[121.17033,16.89759],[121.17376,16.89714],[121.17264,16.89321],[121.17679,16.89181],[121.17622,16.88886],[121.18338,16.89136],[121.18431,16.88846],[121.18715,16.89026],[121.18849,16.88769],[121.18864,16.8908],[121.19042,16.89146],[121.19214,16.88725],[121.20075,16.88717],[121.20113,16.88415],[121.20305,16.88624],[121.20239,16.88864],[121.20609,16.88739],[121.20649,16.89002],[121.20896,16.88973],[121.2086,16.89355],[121.21094,16.89296],[121.21307,16.88728],[121.21341,16.89285],[121.21827,16.89312],[121.22187,16.85372],[121.20636,16.86084],[121.20157,16.85605],[121.19011,16.85835],[121.18215,16.86419],[121.17796,16.86004],[121.17039,16.86385],[121.15936,16.86455],[121.14102,16.87781],[121.12497,16.89671],[121.11815,16.89854],[121.11189,16.8975],[121.10165,16.89182],[121.09232,16.89165],[121.09153,16.89363],[121.08561,16.89437],[121.06101,16.88005],[121.06109,16.86189],[121.04021,16.84987],[121.04064,16.85313],[121.03637,16.8556],[121.0316,16.86183],[121.03123,16.86631],[121.02848,16.86785],[121.02848,16.87399],[121.02512,16.87811],[121.02657,16.88789],[121.02463,16.88887],[121.026,16.89126],[121.02463,16.89322],[121.02885,16.90743],[121.02779,16.91357],[121.03152,16.91739],[121.02977,16.91969],[121.03189,16.91992],[121.03429,16.92409],[121.03324,16.92925],[121.03934,16.93364],[121.0411,16.9381],[121.03984,16.93864],[121.04151,16.94227],[121.04161,16.96171],[121.04562,16.96756],[121.04485,16.97387],[121.04777,16.98113],[121.04865,16.9883],[121.04685,16.99031],[121.04837,16.99482],[121.09106,17.00616],[121.12909,17.00984]]]}},{"type":"Feature","id":1292,"properties":{"area_key":"IFUGAO|HUNGDUAN","name":"Hungduan","short_name":"Hungduan","province":"Ifugao","psgc":"142702000","is_city":false},"geometry":{"type":"Polygon","coordinates":[[[121.04865,16.9883],[121.04485,16.97387],[121.04562,16.96756],[121.04161,16.96171],[121.04151,16.94227],[121.03984,16.93864],[121.0411,16.9381],[121.03934,16.93364],[121.03324,16.92925],[121.03429,16.92409],[121.03189,16.91992],[121.02977,16.91969],[121.03152,16.91739],[121.02779,16.91357],[121.02885,16.90743],[121.02463,16.89322],[121.026,16.89126],[121.02463,16.88887],[121.02657,16.88789],[121.02512,16.87811],[121.02848,16.87399],[121.02848,16.86785],[121.03123,16.86631],[121.0316,16.86183],[121.03637,16.8556],[121.04064,16.85313],[121.04021,16.84987],[121.04344,16.84787],[121.04389,16.84259],[121.04915,16.84039],[121.05106,16.83645],[121.04768,16.8107],[121.03015,16.78925],[121.00997,16.77632],[121.0002,16.78251],[120.98722,16.77779],[120.95327,16.79566],[120.94398,16.80325],[120.92036,16.79791],[120.89861,16.77632],[120.89232,16.81487],[120.89301,16.82106],[120.91013,16.83411],[120.92138,16.86144],[120.9228,16.87522],[120.94644,16.89797],[120.96322,16.94069],[120.96573,16.95565],[120.97199,16.96887],[120.98411,16.98424],[120.99387,16.98906],[121.00899,16.98427],[121.023,16.98509],[121.04837,16.99482],[121.04685,16.99031],[121.04865,16.9883]]]}},{"type":"Feature","id":1293,"properties":{"area_key":"IFUGAO|KIANGAN","name":"Kiangan","short_name":"Kiangan","province":"Ifugao","psgc":"142703000","is_city":false},"geometry":{"type":"Polygon","coordinates":[[[121.07714,16.84112],[121.07854,16.82325],[121.08559,16.81678],[121.08402,16.81189],[121.09655,16.81164],[121.10502,16.80494],[121.10945,16.80396],[121.11357,16.79332],[121.11777,16.7869],[121.12342,16.78248],[121.1318,16.78453],[121.13705,16.78194],[121.13899,16.77801],[121.14253,16.78184],[121.14621,16.78162],[121.16149,16.7638],[121.16191,16.7574],[121.15999,16.75453],[121.16226,16.75048],[121.16088,16.74874],[121.16178,16.74377],[121.16479,16.74174],[121.15648,16.73008],[121.14286,16.71969],[121.1319,16.70137],[121.12931,16.70636],[121.1297,16.71096],[121.12566,16.71159],[121.12259,16.71523],[121.12072,16.71326],[121.11981,16.71711],[121.11716,16.71661],[121.10985,16.73009],[121.10704,16.7294],[121.10176,16.73257],[121.0952,16.74022],[121.09028,16.74043],[121.0872,16.73779],[121.06242,16.75282],[121.05093,16.74925],[121.04484,16.75651],[121.03485,16.76076],[121.02464,16.75511],[121.01716,16.75597],[121.01083,16.74661],[121.00997,16.77632],[121.03015,16.78925],[121.04768,16.8107],[121.05106,16.83645],[121.04915,16.84039],[121.04389,16.84259],[121.04344,16.84787],[121.04021,16.84987],[121.06109,16.86189],[121.07714,16.84112]]]}},{"type":"Feature","id":1294,"properties":{"area_key":"IFUGAO|LAGAWE","name":"Lagawe","short_name":"Lagawe","province":"Ifugao","psgc":"142704000","is_city":false},"geometry":{"type":"Polygon","coordinates":[[[121.17039,16.86385],[121.17796,16.86004],[121.18215,16.86419],[121.19011,16.85835],[121.20157,16.85605],[121.20636,16.86084],[121.22357,16.85265],[121.23438,16.85668],[121.23716,16.85505],[121.23964,16.85617],[121.2418,16.8499],[121.24574,16.85347],[121.25175,16.85028],[121.25132,16.85276],[121.2531,16.85246],[121.2577,16.84434],[121.25331,16.82972],[121.25614,16.82763],[121.25956,16.83241],[121.26791,16.82948],[121.26915,16.82688],[121.26683,16.82404],[121.262,16.82454],[121.2609,16.81952],[121.26414,16.8187],[121.26719,16.82055],[121.26947,16.81846],[121.26796,16.81547],[121.26183,16.81416],[121.26042,16.8097],[121.26609,16.80959],[121.26824,16.80773],[121.26878,16.80157],[121.26581,16.80027],[121.26846,16.7942],[121.26561,16.79472],[121.2636,16.80099],[121.25408,16.80113],[121.25722,16.79475],[121.26555,16.79044],[121.26367,16.78728],[121.26555,16.78423],[121.26395,16.77758],[121.26743,16.77398],[121.27142,16.775],[121.27668,16.77094],[121.28271,16.77638],[121.28931,16.77729],[121.29253,16.77034],[121.29796,16.77601],[121.30205,16.77677],[121.30034,16.77318],[121.30217,16.76852],[121.29915,16.76694],[121.29992,16.76372],[121.30388,16.76111],[121.30091,16.75512],[121.30129,16.75157],[121.30779,16.74961],[121.3077,16.74474],[121.31324,16.74477],[121.32385,16.73849],[121.32638,16.73309],[121.31434,16.71791],[121.31541,16.70131],[121.31376,16.69688],[121.31215,16.69778],[121.30437,16.69306],[121.29365,16.69412],[121.28837,16.68837],[121.28824,16.68624],[121.29188,16.68374],[121.29404,16.67925],[121.29025,16.67062],[121.28728,16.67106],[121.27177,16.68297],[121.26665,16.69188],[121.255,16.69991],[121.25086,16.71016],[121.24265,16.71455],[121.24164,16.7181],[121.24431,16.72188],[121.24372,16.72925],[121.24561,16.73162],[121.24345,16.7419],[121.23782,16.74573],[121.23018,16.74596],[121.22798,16.75423],[121.22451,16.7578],[121.21758,16.7556],[121.21375,16.75872],[121.20653,16.75771],[121.19626,16.76005],[121.16727,16.74157],[121.16261,16.74185],[121.16172,16.75308],[121.15999,16.75453],[121.16191,16.7574],[121.16149,16.7638],[121.14621,16.78162],[121.14253,16.78184],[121.13899,16.77801],[121.13705,16.78194],[121.1318,16.78453],[121.12342,16.78248],[121.11777,16.7869],[121.11357,16.79332],[121.10945,16.80396],[121.10502,16.80494],[121.09655,16.81164],[121.08402,16.81189],[121.08618,16.81843],[121.08507,16.82165],[121.0946,16.82452],[121.10214,16.83084],[121.1099,16.82061],[121.11347,16.82313],[121.11414,16.83284],[121.12132,16.83547],[121.1314,16.83574],[121.14319,16.83334],[121.14456,16.85409],[121.1528,16.86935],[121.15936,16.86455],[121.17039,16.86385]]]}},{"type":"Feature","id":1295,"properties":{"area_key":"IFUGAO|LAMUT","name":"Lamut","short_name":"Lamut","province":"Ifugao","psgc":"142705000","is_city":false},"geometry":{"type":"Polygon","coordinates":[[[121.19626,16.76005],[121.20653,16.75771],[121.21375,16.75872],[121.21758,16.7556],[121.22451,16.7578],[121.22798,16.75423],[121.23018,16.74596],[121.23782,16.74573],[121.24345,16.7419],[121.24561,16.73162],[121.24372,16.72925],[121.2452,16.72514],[121.24186,16.71565],[121.25086,16.71016],[121.255,16.69991],[121.26665,16.69188],[121.27177,16.68297],[121.28728,16.67106],[121.29025,16.67062],[121.29137,16.67355],[121.29415,16.66136],[121.28616,16.65693],[121.28062,16.66266],[121.27917,16.66752],[121.27643,16.66853],[121.27115,16.66374],[121.26946,16.65899],[121.26409,16.66059],[121.26038,16.65833],[121.25889,16.65114],[121.25376,16.65105],[121.25216,16.65269],[121.24973,16.65094],[121.24382,16.65131],[121.24113,16.65394],[121.23604,16.65416],[121.2326,16.64916],[121.22471,16.64796],[121.22241,16.64466],[121.21312,16.64572],[121.21188,16.64167],[121.20447,16.64288],[121.20193,16.6398],[121.19775,16.63896],[121.1767,16.64027],[121.17368,16.64461],[121.16982,16.6459],[121.1632,16.64301],[121.16221,16.63904],[121.16058,16.63869],[121.15266,16.64209],[121.1355,16.64475],[121.12662,16.64165],[121.12263,16.63831],[121.13336,16.66428],[121.13317,16.69435],[121.13036,16.69944],[121.14286,16.71969],[121.15648,16.73008],[121.16479,16.74174],[121.16727,16.74157],[121.19626,16.76005]]]}},{"type":"Feature","id":1296,"properties":{"area_key":"IFUGAO|MAYOYAO","name":"Mayoyao","short_name":"Mayoyao","province":"Ifugao","psgc":"142706000","is_city":false},"geometry":{"type":"Polygon","coordinates":[[[121.16356,17.00429],[121.21439,17.00331],[121.22846,17.00609],[121.24593,17.00626],[121.27933,16.98478],[121.28407,16.96998],[121.28688,16.9677],[121.28329,16.96605],[121.28223,16.96784],[121.27465,16.95619],[121.27693,16.95517],[121.27826,16.95878],[121.28211,16.95748],[121.28224,16.9539],[121.27829,16.95257],[121.27893,16.94854],[121.27421,16.94992],[121.27333,16.95216],[121.27147,16.95116],[121.27213,16.94864],[121.27628,16.94792],[121.2739,16.94348],[121.27594,16.94102],[121.27479,16.9397],[121.27108,16.94211],[121.27033,16.93658],[121.27462,16.93615],[121.27155,16.93414],[121.27267,16.93156],[121.27025,16.93019],[121.27429,16.92944],[121.2832,16.91754],[121.28599,16.90257],[121.28495,16.89426],[121.28794,16.88775],[121.28376,16.8861],[121.28333,16.88337],[121.28996,16.8823],[121.2887,16.87898],[121.34223,16.78925],[121.33585,16.78479],[121.33632,16.7805],[121.34354,16.77754],[121.34609,16.77215],[121.34482,16.76765],[121.33175,16.76486],[121.32617,16.75754],[121.32973,16.75367],[121.33728,16.75621],[121.33931,16.75522],[121.33381,16.75194],[121.33191,16.74339],[121.33305,16.74261],[121.3281,16.73345],[121.32638,16.73309],[121.32385,16.73849],[121.31324,16.74477],[121.3077,16.74474],[121.30779,16.74961],[121.30129,16.75157],[121.30091,16.75512],[121.30388,16.76111],[121.29992,16.76372],[121.29915,16.76694],[121.30217,16.76852],[121.30034,16.77318],[121.30205,16.77677],[121.29796,16.77601],[121.29253,16.77034],[121.28931,16.77729],[121.28271,16.77638],[121.27668,16.77094],[121.27142,16.775],[121.26743,16.77398],[121.26395,16.77758],[121.26555,16.78423],[121.26367,16.78728],[121.26555,16.79044],[121.25722,16.79475],[121.25408,16.80113],[121.2636,16.80099],[121.26561,16.79472],[121.26846,16.7942],[121.26581,16.80027],[121.26878,16.80157],[121.26824,16.80773],[121.26609,16.80959],[121.26042,16.8097],[121.26183,16.81416],[121.26796,16.81547],[121.26947,16.81846],[121.26719,16.82055],[121.26414,16.8187],[121.2609,16.81952],[121.262,16.82454],[121.26847,16.8248],[121.26892,16.82805],[121.25956,16.83241],[121.25614,16.82763],[121.25331,16.82972],[121.2577,16.84434],[121.25216,16.85307],[121.25201,16.8503],[121.24574,16.85347],[121.2418,16.8499],[121.23964,16.85617],[121.23716,16.85505],[121.23438,16.85668],[121.22664,16.85261],[121.22187,16.85372],[121.21827,16.89312],[121.21341,16.89285],[121.21307,16.88728],[121.21094,16.89296],[121.2086,16.89355],[121.20896,16.88973],[121.20649,16.89002],[121.20609,16.88739],[121.20239,16.88864],[121.20305,16.88624],[121.20113,16.88415],[121.20075,16.88717],[121.19214,16.88725],[121.19042,16.89146],[121.18864,16.8908],[121.18849,16.88769],[121.18715,16.89026],[121.18431,16.88846],[121.18338,16.89136],[121.17622,16.88886],[121.17679,16.89181],[121.17264,16.89321],[121.17376,16.89714],[121.17033,16.89759],[121.17113,16.90015],[121.16697,16.89987],[121.16998,16.9021],[121.16731,16.90515],[121.16963,16.91844],[121.1676,16.91913],[121.16839,16.9214],[121.16562,16.92096],[121.16686,16.92923],[121.1652,16.93545],[121.14848,16.94866],[121.12909,17.00984],[121.14537,17.01235],[121.16356,17.00429]]]}},{"type":"Feature","id":1297,"properties":{"area_key":"IFUGAO|ALFONSO LISTA","name":"Alfonso Lista","short_name":"Alfonso Lista","province":"Ifugao","psgc":"142707000","is_city":false},"geometry":{"type":"Polygon","coordinates":[[[121.48755,17.07949],[121.5675,17.07906],[121.57149,17.04094],[121.56975,17.02265],[121.56744,17.01728],[121.55876,17.01219],[121.56072,17.00946],[121.56254,16.96739],[121.57287,16.96879],[121.56464,16.96114],[121.56203,16.95317],[121.56244,16.95143],[121.56437,16.95314],[121.5649,16.95091],[121.56984,16.94808],[121.56821,16.94796],[121.56822,16.90951],[121.56407,16.90761],[121.56372,16.90218],[121.55842,16.89909],[121.54887,16.87369],[121.54196,16.87764],[121.53798,16.87782],[121.53197,16.86339],[121.53183,16.85134],[121.52132,16.83893],[121.50235,16.83454],[121.47914,16.83597],[121.47342,16.83162],[121.45826,16.82628],[121.44491,16.82453],[121.43658,16.81959],[121.42626,16.81721],[121.41794,16.84426],[121.4261,16.88728],[121.45635,16.91015],[121.45926,16.91763],[121.45386,16.94016],[121.44503,16.96339],[121.41503,16.99152],[121.4269,17.01167],[121.45855,17.0158],[121.41713,17.06802],[121.48755,17.07949]]]}},{"type":"Feature","id":1298,"properties":{"area_key":"IFUGAO|AGUINALDO","name":"Aguinaldo","short_name":"Aguinaldo","province":"Ifugao","psgc":"142708000","is_city":false},"geometry":{"type":"Polygon","coordinates":[[[121.41713,17.06802],[121.45855,17.0158],[121.4269,17.01167],[121.41503,16.99152],[121.44503,16.96339],[121.45386,16.94016],[121.45926,16.91763],[121.45635,16.91015],[121.4261,16.88728],[121.41794,16.84426],[121.42626,16.81721],[121.41952,16.81747],[121.40175,16.80487],[121.3946,16.80525],[121.38601,16.79668],[121.37201,16.79836],[121.37198,16.79543],[121.37796,16.79044],[121.37592,16.78845],[121.36212,16.78935],[121.35842,16.78702],[121.35954,16.77885],[121.35475,16.77442],[121.35409,16.78364],[121.34979,16.78719],[121.34216,16.78877],[121.2887,16.87898],[121.28996,16.8823],[121.28333,16.88337],[121.28376,16.8861],[121.28794,16.88775],[121.28495,16.89426],[121.28599,16.90257],[121.2832,16.91754],[121.27429,16.92944],[121.27025,16.93019],[121.27267,16.93156],[121.27155,16.93414],[121.27462,16.93615],[121.27033,16.93658],[121.27108,16.94211],[121.27479,16.9397],[121.27594,16.94102],[121.2739,16.94348],[121.27628,16.94792],[121.27213,16.94864],[121.27147,16.95116],[121.27333,16.95216],[121.27421,16.94992],[121.27893,16.94854],[121.27829,16.95257],[121.28224,16.9539],[121.28211,16.95748],[121.27826,16.95878],[121.27693,16.95517],[121.27465,16.95619],[121.28223,16.96784],[121.28329,16.96605],[121.28688,16.9677],[121.28407,16.96998],[121.27933,16.98478],[121.24593,17.00626],[121.26067,17.01628],[121.28572,17.02713],[121.34873,17.06433],[121.37322,17.07349],[121.4027,17.07186],[121.41713,17.06802]]]}},{"type":"Feature","id":1299,"properties":{"area_key":"IFUGAO|HINGYON","name":"Hingyon","short_name":"Hingyon","province":"Ifugao","psgc":"142709000","is_city":false},"geometry":{"type":"Polygon","coordinates":[[[121.11189,16.8975],[121.12497,16.89671],[121.14102,16.87781],[121.1528,16.86935],[121.14456,16.85409],[121.14319,16.83334],[121.1314,16.83574],[121.12132,16.83547],[121.11414,16.83284],[121.11347,16.82313],[121.1099,16.82061],[121.10214,16.83084],[121.0946,16.82452],[121.08507,16.82165],[121.08559,16.81678],[121.07854,16.82325],[121.07714,16.84112],[121.06109,16.86189],[121.06096,16.87999],[121.08561,16.89437],[121.09153,16.89363],[121.09232,16.89165],[121.10165,16.89182],[121.11189,16.8975]]]}},{"type":"Feature","id":1300,"properties":{"area_key":"IFUGAO|TINOC","name":"Tinoc","short_name":"Tinoc","province":"Ifugao","psgc":"142710000","is_city":false},"geometry":{"type":"Polygon","coordinates":[[[120.95327,16.79566],[120.98722,16.77779],[121.0002,16.78251],[121.00997,16.77632],[121.01083,16.74661],[121.01288,16.7386],[120.98828,16.68213],[120.98814,16.6407],[120.99082,16.5954],[120.98372,16.56947],[120.97311,16.56945],[120.94754,16.5792],[120.93994,16.58508],[120.93233,16.59465],[120.91517,16.62996],[120.89433,16.69284],[120.8938,16.74359],[120.89861,16.77632],[120.92036,16.79791],[120.94398,16.80325],[120.95327,16.79566]]]}},{"type":"Feature","id":1301,"properties":{"area_key":"IFUGAO|ASIPULO","name":"Asipulo","short_name":"Asipulo","province":"Ifugao","psgc":"142711000","is_city":false},"geometry":{"type":"Polygon","coordinates":[[[121.04484,16.75651],[121.05093,16.74925],[121.06242,16.75282],[121.0872,16.73779],[121.09028,16.74043],[121.0952,16.74022],[121.10176,16.73257],[121.10704,16.7294],[121.10985,16.73009],[121.11356,16.72425],[121.11289,16.72268],[121.11716,16.71661],[121.1205,16.71628],[121.12072,16.71326],[121.12259,16.71523],[121.12566,16.71159],[121.1297,16.71096],[121.12931,16.70636],[121.1319,16.70137],[121.13042,16.69781],[121.13317,16.69435],[121.13336,16.66428],[121.12263,16.63831],[121.10563,16.63056],[121.07213,16.62783],[121.0357,16.61001],[121.02794,16.60227],[120.98396,16.56965],[120.99082,16.5954],[120.98814,16.6407],[120.98828,16.68213],[121.01288,16.7386],[121.01083,16.74661],[121.01716,16.75597],[121.02464,16.75511],[121.03485,16.76076],[121.04484,16.75651]]]}},{"type":"Feature","id":1302,"properties":{"area_key":"KALINGA|BALBALAN","name":"Balbalan","short_name":"Balbalan","province":"Kalinga","psgc":"143201000","is_city":false},"geometry":{"type":"Polygon","coordinates":[[[121.1206,17.67434],[121.13258,17.67234],[121.13932,17.67674],[121.1424,17.67612],[121.14366,17.66704],[121.14601,17.6633],[121.15156,17.66327],[121.15851,17.66607],[121.16201,17.66488],[121.16556,17.66868],[121.16961,17.66975],[121.17329,17.66655],[121.17359,17.66148],[121.177,17.65692],[121.18643,17.65547],[121.18771,17.65147],[121.20007,17.64336],[121.21773,17.63589],[121.22483,17.63555],[121.2312,17.6363],[121.23317,17.63835],[121.24045,17.65438],[121.25346,17.6592],[121.25355,17.6723],[121.25869,17.67458],[121.26481,17.68258],[121.28444,17.6837],[121.29578,17.68042],[121.30336,17.66976],[121.30483,17.66463],[121.29907,17.65675],[121.29364,17.64264],[121.29683,17.63091],[121.29614,17.62459],[121.29002,17.61774],[121.28495,17.60667],[121.2856,17.57343],[121.29262,17.57215],[121.30087,17.55372],[121.31634,17.54585],[121.31963,17.53843],[121.31909,17.53027],[121.31462,17.5246],[121.29931,17.51859],[121.29463,17.51191],[121.28222,17.50848],[121.26765,17.48828],[121.25986,17.47173],[121.25583,17.44522],[121.23697,17.44102],[121.2208,17.42251],[121.21944,17.43253],[121.20021,17.43194],[121.19429,17.43472],[121.18674,17.4432],[121.17355,17.44432],[121.16966,17.44903],[121.15828,17.4425],[121.14252,17.44281],[121.13631,17.44041],[121.11852,17.44395],[121.08369,17.44275],[121.06832,17.43185],[121.06547,17.42561],[121.06378,17.41349],[121.05932,17.40551],[121.05482,17.40409],[121.04648,17.40614],[121.04253,17.40517],[121.03274,17.38842],[121.02573,17.38945],[121.02251,17.38694],[121.01604,17.3932],[121.01313,17.39342],[121.00387,17.38028],[120.99978,17.37782],[120.98916,17.39221],[120.99207,17.4003],[120.99281,17.41781],[120.99938,17.43262],[120.99919,17.46519],[120.9928,17.47821],[120.99362,17.48637],[120.99978,17.49486],[121.0281,17.5079],[121.03364,17.51199],[121.03789,17.51824],[121.05939,17.52842],[121.06993,17.54777],[121.07316,17.54934],[121.10209,17.54928],[121.10902,17.55399],[121.11228,17.57089],[121.11156,17.5761],[121.11614,17.58134],[121.11691,17.58618],[121.1111,17.59868],[121.09396,17.6069],[121.08919,17.61367],[121.0904,17.62129],[121.09831,17.63088],[121.09046,17.64348],[121.08981,17.67093],[121.0953,17.67082],[121.10104,17.67346],[121.10779,17.68371],[121.11243,17.68511],[121.11753,17.68333],[121.1206,17.67434]]]}},{"type":"Feature","id":1303,"properties":{"area_key":"KALINGA|LUBUAGAN","name":"Lubuagan","short_name":"Lubuagan","province":"Kalinga","psgc":"143206000","is_city":false},"geometry":{"type":"Polygon","coordinates":[[[121.21919,17.39402],[121.23678,17.37241],[121.23387,17.37299],[121.22762,17.3657],[121.22414,17.36486],[121.222,17.36193],[121.22233,17.35779],[121.21796,17.35519],[121.21814,17.34773],[121.21475,17.34232],[121.21589,17.33664],[121.21241,17.33371],[121.21497,17.32846],[121.21129,17.32117],[121.20615,17.31856],[121.20624,17.31596],[121.1752,17.32022],[121.15696,17.32614],[121.14678,17.3441],[121.12893,17.33378],[121.11919,17.34924],[121.11491,17.3471],[121.1106,17.34771],[121.1146,17.36272],[121.12033,17.36966],[121.12356,17.37076],[121.14035,17.37069],[121.15486,17.37516],[121.16697,17.37466],[121.18038,17.37917],[121.19457,17.37716],[121.20244,17.38043],[121.21299,17.39348],[121.21919,17.39402]]]}},{"type":"Feature","id":1304,"properties":{"area_key":"KALINGA|PASIL","name":"Pasil","short_name":"Pasil","province":"Kalinga","psgc":"143208000","is_city":false},"geometry":{"type":"Polygon","coordinates":[[[121.17194,17.44547],[121.18674,17.4432],[121.19429,17.43472],[121.20021,17.43194],[121.21812,17.43288],[121.22075,17.43049],[121.21919,17.39402],[121.21299,17.39348],[121.20244,17.38043],[121.19211,17.37681],[121.18038,17.37917],[121.1669,17.37464],[121.15486,17.37516],[121.14035,17.37069],[121.12033,17.36966],[121.11291,17.35888],[121.11021,17.34684],[121.11035,17.31932],[121.10439,17.31329],[121.08657,17.30274],[121.04618,17.29771],[121.04184,17.28617],[121.03813,17.2826],[121.00252,17.26539],[120.97572,17.24136],[120.94871,17.24108],[120.9432,17.24417],[120.9119,17.24892],[120.91223,17.25367],[120.91664,17.25894],[120.91792,17.2671],[120.92632,17.27339],[120.92483,17.28479],[120.93024,17.29431],[120.93785,17.31544],[120.94474,17.32207],[120.95622,17.34071],[120.96337,17.36774],[120.97423,17.37953],[120.98251,17.38288],[120.98916,17.39221],[120.99978,17.37782],[121.00387,17.38028],[121.01313,17.39342],[121.01604,17.3932],[121.02251,17.38694],[121.02573,17.38945],[121.02966,17.38775],[121.03344,17.38863],[121.04253,17.40517],[121.04648,17.40614],[121.05482,17.40409],[121.06009,17.40618],[121.06378,17.41349],[121.06547,17.42561],[121.06832,17.43185],[121.0829,17.44253],[121.0916,17.44419],[121.09745,17.44283],[121.11852,17.44395],[121.13631,17.44041],[121.14252,17.44281],[121.15828,17.4425],[121.16751,17.44893],[121.16966,17.44903],[121.17194,17.44547]]]}},{"type":"Feature","id":1305,"properties":{"area_key":"KALINGA|PINUKPUK","name":"Pinukpuk","short_name":"Pinukpuk","province":"Kalinga","psgc":"143209000","is_city":false},"geometry":{"type":"Polygon","coordinates":[[[121.4384,17.69063],[121.43676,17.67135],[121.44187,17.66454],[121.45216,17.66119],[121.45762,17.66308],[121.45758,17.66945],[121.46371,17.66923],[121.46648,17.67236],[121.4727,17.67202],[121.47706,17.6688],[121.47587,17.66312],[121.47227,17.65991],[121.48512,17.64732],[121.47619,17.64545],[121.48409,17.6385],[121.48884,17.62598],[121.48724,17.61005],[121.49191,17.60935],[121.49661,17.59104],[121.49629,17.54774],[121.45289,17.54843],[121.43994,17.54353],[121.41136,17.5394],[121.398,17.52031],[121.39781,17.50078],[121.39252,17.50067],[121.36977,17.49348],[121.37728,17.4892],[121.38374,17.48248],[121.34557,17.47222],[121.34019,17.47869],[121.31138,17.46104],[121.26925,17.44768],[121.25583,17.44522],[121.25986,17.47173],[121.26765,17.48828],[121.27696,17.50198],[121.28413,17.5102],[121.29463,17.51191],[121.29931,17.51859],[121.31462,17.5246],[121.31951,17.53182],[121.31963,17.53843],[121.31634,17.54585],[121.30087,17.55372],[121.29262,17.57215],[121.2856,17.57343],[121.28453,17.60451],[121.29002,17.61774],[121.2968,17.62679],[121.29364,17.64264],[121.29874,17.65611],[121.3497,17.6528],[121.37118,17.64169],[121.38184,17.65071],[121.41667,17.66666],[121.43276,17.69066],[121.43655,17.69323],[121.4384,17.69063]]]}},{"type":"Feature","id":1306,"properties":{"area_key":"KALINGA|RIZAL","name":"Rizal","short_name":"Rizal","province":"Kalinga","psgc":"143211000","is_city":false},"geometry":{"type":"Polygon","coordinates":[[[121.51408,17.59018],[121.52582,17.58368],[121.53392,17.58432],[121.54672,17.58062],[121.5733,17.56479],[121.57673,17.55549],[121.59972,17.5482],[121.60304,17.56341],[121.6142,17.56032],[121.63258,17.53322],[121.62597,17.52859],[121.6352,17.52163],[121.63325,17.51926],[121.63961,17.50436],[121.64723,17.50048],[121.64237,17.46864],[121.63793,17.45354],[121.62793,17.43139],[121.6291,17.41832],[121.60608,17.42143],[121.59348,17.39692],[121.56215,17.43773],[121.55794,17.47337],[121.52463,17.5003],[121.49629,17.54774],[121.49661,17.59104],[121.51408,17.59018]]]}},{"type":"Feature","id":1307,"properties":{"area_key":"KALINGA|TABUK","name":"Tabuk City","short_name":"City of Tabuk","province":"Kalinga","psgc":"143213000","is_city":true},"geometry":{"type":"Polygon","coordinates":[[[121.45289,17.54843],[121.49629,17.54774],[121.52463,17.5003],[121.55794,17.47337],[121.56215,17.43773],[121.59348,17.39692],[121.58219,17.35356],[121.55993,17.35048],[121.54836,17.32395],[121.5387,17.31727],[121.53322,17.29652],[121.53017,17.27492],[121.53452,17.26951],[121.53067,17.26817],[121.52712,17.27003],[121.52747,17.27309],[121.52537,17.27175],[121.52388,17.27406],[121.51496,17.27804],[121.51112,17.27656],[121.51128,17.28225],[121.50551,17.28025],[121.50439,17.28416],[121.50591,17.28656],[121.50182,17.29087],[121.48795,17.28913],[121.48521,17.29332],[121.42672,17.28804],[121.42244,17.28572],[121.41842,17.28705],[121.41384,17.28472],[121.41262,17.28925],[121.41174,17.28667],[121.40915,17.2863],[121.4092,17.28344],[121.40699,17.28563],[121.39819,17.28085],[121.39626,17.28397],[121.38909,17.28776],[121.38838,17.2911],[121.38303,17.2942],[121.39197,17.29901],[121.39711,17.30535],[121.40171,17.30739],[121.40126,17.31175],[121.40308,17.31336],[121.40102,17.31427],[121.40242,17.31742],[121.40009,17.31868],[121.40215,17.32404],[121.40059,17.32609],[121.40268,17.32841],[121.40113,17.33054],[121.39846,17.32934],[121.39686,17.33145],[121.39426,17.33085],[121.39425,17.33345],[121.39763,17.33649],[121.39416,17.34644],[121.38731,17.34512],[121.38726,17.34847],[121.38416,17.34845],[121.38359,17.35073],[121.37511,17.34706],[121.37366,17.34794],[121.37384,17.3529],[121.36376,17.35312],[121.36062,17.35684],[121.3521,17.34881],[121.34397,17.34453],[121.33665,17.34549],[121.32879,17.34008],[121.32284,17.33947],[121.31075,17.34622],[121.30029,17.34924],[121.29762,17.35553],[121.29037,17.35499],[121.2783,17.35872],[121.27841,17.36486],[121.27515,17.36987],[121.27242,17.37046],[121.26102,17.38183],[121.25246,17.38208],[121.24106,17.37274],[121.23678,17.37241],[121.21919,17.39402],[121.2208,17.42251],[121.23697,17.44102],[121.26925,17.44768],[121.31138,17.46104],[121.34019,17.47869],[121.34557,17.47222],[121.38374,17.48248],[121.37728,17.4892],[121.36977,17.49348],[121.39252,17.50067],[121.39781,17.50078],[121.398,17.52031],[121.41136,17.5394],[121.43994,17.54353],[121.45289,17.54843]]]}},{"type":"Feature","id":1308,"properties":{"area_key":"KALINGA|TANUDAN","name":"Tanudan","short_name":"Tanudan","province":"Kalinga","psgc":"143214000","is_city":false},"geometry":{"type":"Polygon","coordinates":[[[121.26102,17.38183],[121.27242,17.37046],[121.27515,17.36987],[121.27841,17.36486],[121.2783,17.35872],[121.29037,17.35499],[121.29762,17.35553],[121.30029,17.34924],[121.31075,17.34622],[121.32284,17.33947],[121.32879,17.34008],[121.33665,17.34549],[121.34397,17.34453],[121.3521,17.34881],[121.36062,17.35684],[121.36376,17.35312],[121.37384,17.3529],[121.37366,17.34794],[121.37511,17.34706],[121.38359,17.35073],[121.38416,17.34845],[121.38726,17.34847],[121.38731,17.34512],[121.39416,17.34644],[121.39763,17.33649],[121.39425,17.33345],[121.39426,17.33085],[121.39686,17.33145],[121.39846,17.32934],[121.40113,17.33054],[121.40268,17.32841],[121.40059,17.32609],[121.40215,17.32404],[121.40009,17.31868],[121.40242,17.31742],[121.40102,17.31427],[121.40308,17.31336],[121.40126,17.31175],[121.40171,17.30739],[121.39711,17.30535],[121.39197,17.29901],[121.38303,17.2942],[121.39952,17.28047],[121.39522,17.2714],[121.38401,17.26193],[121.37603,17.25749],[121.37191,17.25977],[121.36785,17.25867],[121.36494,17.25444],[121.35767,17.25188],[121.35182,17.24701],[121.34733,17.24841],[121.34568,17.2462],[121.34251,17.24595],[121.33832,17.23883],[121.33542,17.23623],[121.33088,17.2361],[121.32721,17.23124],[121.31843,17.23113],[121.30338,17.24134],[121.29261,17.24422],[121.28932,17.24346],[121.28901,17.2361],[121.28604,17.23152],[121.27379,17.23099],[121.2677,17.22763],[121.26042,17.22747],[121.25746,17.22126],[121.25723,17.21071],[121.25502,17.20431],[121.24824,17.19351],[121.2423,17.18933],[121.22602,17.18277],[121.21477,17.18104],[121.1997,17.17417],[121.18519,17.17084],[121.18,17.17226],[121.17056,17.17011],[121.1656,17.17689],[121.15958,17.1798],[121.15752,17.18596],[121.1527,17.18761],[121.14801,17.19411],[121.1568,17.20391],[121.15766,17.21183],[121.16406,17.21715],[121.16167,17.22412],[121.163,17.22922],[121.16083,17.23304],[121.16229,17.2387],[121.16897,17.24092],[121.17334,17.2473],[121.17438,17.25292],[121.18287,17.25474],[121.18255,17.26917],[121.18732,17.27906],[121.18592,17.28237],[121.1881,17.2907],[121.19191,17.29617],[121.19707,17.2972],[121.20075,17.30604],[121.20047,17.31082],[121.20562,17.31455],[121.20615,17.31856],[121.21197,17.32199],[121.21131,17.32378],[121.21497,17.32846],[121.21241,17.33371],[121.21589,17.33664],[121.21475,17.34232],[121.21814,17.34773],[121.21796,17.35519],[121.22233,17.35779],[121.22255,17.36312],[121.22762,17.3657],[121.23387,17.37299],[121.24106,17.37274],[121.25124,17.38159],[121.26102,17.38183]]]}},{"type":"Feature","id":1309,"properties":{"area_key":"KALINGA|TINGLAYAN","name":"Tinglayan","short_name":"Tinglayan","province":"Kalinga","psgc":"143215000","is_city":false},"geometry":{"type":"Polygon","coordinates":[[[121.11919,17.34924],[121.12893,17.33378],[121.14678,17.3441],[121.15696,17.32614],[121.1752,17.32022],[121.20624,17.31596],[121.20047,17.31082],[121.20075,17.30604],[121.19707,17.2972],[121.19191,17.29617],[121.1881,17.2907],[121.18592,17.28237],[121.18732,17.27906],[121.18255,17.26917],[121.18287,17.25474],[121.17438,17.25292],[121.17334,17.2473],[121.16897,17.24092],[121.16229,17.2387],[121.16083,17.23304],[121.163,17.22922],[121.16167,17.22412],[121.16406,17.21715],[121.15766,17.21183],[121.1568,17.20391],[121.14801,17.19411],[121.1527,17.18761],[121.15752,17.18596],[121.15958,17.1798],[121.1656,17.17689],[121.17056,17.17011],[121.15979,17.16949],[121.11593,17.17765],[121.1004,17.18649],[121.08662,17.199],[121.08334,17.21609],[121.06883,17.22944],[121.05369,17.23102],[121.03022,17.23974],[120.97572,17.24136],[121.00252,17.26539],[121.03813,17.2826],[121.04184,17.28617],[121.04618,17.29771],[121.08657,17.30274],[121.09663,17.30739],[121.11035,17.31932],[121.1106,17.34771],[121.11491,17.3471],[121.11919,17.34924]]]}},{"type":"Feature","id":1310,"properties":{"area_key":"MOUNTAIN PROVINCE|BARLIG","name":"Barlig","short_name":"Barlig","province":"Mountain Province","psgc":"144401000","is_city":false},"geometry":{"type":"Polygon","coordinates":[[[121.19237,17.07717],[121.202,17.06714],[121.20721,17.06586],[121.20755,17.06223],[121.21062,17.05804],[121.21295,17.05888],[121.21457,17.0546],[121.21718,17.05777],[121.22065,17.05619],[121.22488,17.05814],[121.2242,17.06198],[121.22815,17.06132],[121.23073,17.06351],[121.23778,17.06069],[121.2386,17.0638],[121.24091,17.06329],[121.2425,17.05857],[121.24095,17.05338],[121.24171,17.04158],[121.23476,17.03503],[121.2277,17.02399],[121.22846,17.00609],[121.21439,17.00331],[121.16356,17.00429],[121.14537,17.01235],[121.11663,17.00842],[121.10765,17.00885],[121.075,17.00294],[121.03271,16.98976],[121.04277,17.01569],[121.04117,17.0207],[121.05438,17.03635],[121.06014,17.05962],[121.06927,17.05935],[121.06927,17.06443],[121.07672,17.08035],[121.07774,17.08949],[121.08316,17.09559],[121.08485,17.10338],[121.09569,17.11557],[121.09907,17.14639],[121.09332,17.15892],[121.09345,17.17418],[121.08789,17.18631],[121.08662,17.199],[121.1004,17.18649],[121.11593,17.17765],[121.15979,17.16949],[121.18608,17.12452],[121.18859,17.08932],[121.19237,17.07717]]]}},{"type":"Feature","id":1311,"properties":{"area_key":"MOUNTAIN PROVINCE|BAUKO","name":"Bauko","short_name":"Bauko","province":"Mountain Province","psgc":"144402000","is_city":false},"geometry":{"type":"Polygon","coordinates":[[[120.88846,16.93548],[120.89402,16.90816],[120.9083,16.8989],[120.9228,16.87522],[120.92138,16.86144],[120.91013,16.83411],[120.89301,16.82106],[120.88616,16.82741],[120.87464,16.82733],[120.87011,16.82958],[120.85674,16.84186],[120.85643,16.854],[120.85201,16.85773],[120.85423,16.86093],[120.85101,16.87432],[120.85106,16.89794],[120.84887,16.90083],[120.85654,16.9134],[120.85125,16.93368],[120.84496,16.94037],[120.84194,16.95164],[120.8368,16.9547],[120.83321,16.96591],[120.84098,16.97751],[120.84874,16.98172],[120.8554,16.99891],[120.8519,17.02806],[120.86676,17.04976],[120.86461,17.0603],[120.88615,17.05458],[120.88386,17.04111],[120.89418,17.03992],[120.88732,17.01614],[120.89351,17.00295],[120.89446,16.97881],[120.89219,16.96683],[120.89535,16.96668],[120.89606,16.95778],[120.88846,16.93548]]]}},{"type":"Feature","id":1312,"properties":{"area_key":"MOUNTAIN PROVINCE|BESAO","name":"Besao","short_name":"Besao","province":"Mountain Province","psgc":"144403000","is_city":false},"geometry":{"type":"Polygon","coordinates":[[[120.88407,17.11297],[120.87865,17.10123],[120.8767,17.0883],[120.87968,17.07744],[120.8691,17.07188],[120.86892,17.06748],[120.86572,17.06555],[120.86461,17.0603],[120.76761,17.06679],[120.77482,17.10802],[120.81236,17.15587],[120.80475,17.17127],[120.82752,17.18124],[120.85315,17.18744],[120.88231,17.18872],[120.89105,17.19082],[120.87869,17.13525],[120.88407,17.11297]]]}},{"type":"Feature","id":1313,"properties":{"area_key":"MOUNTAIN PROVINCE|BONTOC","name":"Bontoc","short_name":"Bontoc","province":"Mountain Province","psgc":"144404000","is_city":false},"geometry":{"type":"Polygon","coordinates":[[[121.07179,17.1001],[121.07943,17.09254],[121.07503,17.07459],[121.06927,17.06443],[121.06927,17.05935],[121.06014,17.05962],[121.05438,17.03635],[121.04117,17.0207],[121.04277,17.01569],[121.03271,16.98976],[121.023,16.98509],[121.00899,16.98427],[120.99387,16.98906],[120.98279,16.99763],[120.94984,17.0111],[120.93311,17.01414],[120.93149,17.01576],[120.93087,17.03527],[120.92168,17.03676],[120.91777,17.04094],[120.91994,17.0503],[120.92833,17.06716],[120.93733,17.07227],[120.93958,17.07914],[120.94482,17.08366],[120.94323,17.0849],[120.94441,17.0892],[120.94207,17.0936],[120.93674,17.0928],[120.93385,17.09633],[120.92432,17.0988],[120.92301,17.10533],[120.92029,17.10821],[120.90794,17.13826],[120.89105,17.19082],[120.91076,17.21308],[120.9773,17.18244],[120.99938,17.1539],[121.02671,17.14362],[121.0309,17.13583],[121.03169,17.12786],[121.03466,17.1213],[121.07179,17.1001]]]}},{"type":"Feature","id":1314,"properties":{"area_key":"MOUNTAIN PROVINCE|NATONIN","name":"Natonin","short_name":"Natonin","province":"Mountain Province","psgc":"144405000","is_city":false},"geometry":{"type":"Polygon","coordinates":[[[121.31843,17.23113],[121.32721,17.23124],[121.33042,17.2352],[121.33063,17.20209],[121.34676,17.17055],[121.36069,17.15244],[121.41713,17.06802],[121.4027,17.07186],[121.37322,17.07349],[121.34873,17.06433],[121.28572,17.02713],[121.26067,17.01628],[121.24593,17.00626],[121.22846,17.00609],[121.2277,17.02399],[121.23476,17.03503],[121.24171,17.04158],[121.24095,17.05338],[121.2425,17.05857],[121.24091,17.06329],[121.2386,17.0638],[121.23778,17.06069],[121.23073,17.06351],[121.22815,17.06132],[121.2242,17.06198],[121.22488,17.05814],[121.22065,17.05619],[121.21718,17.05777],[121.21457,17.0546],[121.21295,17.05888],[121.21062,17.05804],[121.20755,17.06223],[121.20721,17.06586],[121.202,17.06714],[121.19428,17.07444],[121.18859,17.08932],[121.18608,17.12452],[121.15979,17.16949],[121.18,17.17226],[121.18519,17.17084],[121.1997,17.17417],[121.21477,17.18104],[121.22602,17.18277],[121.2423,17.18933],[121.24824,17.19351],[121.25502,17.20431],[121.25723,17.21071],[121.25746,17.22126],[121.26042,17.22747],[121.2677,17.22763],[121.27379,17.23099],[121.28604,17.23152],[121.28901,17.2361],[121.28932,17.24346],[121.29261,17.24422],[121.30338,17.24134],[121.31843,17.23113]]]}},{"type":"Feature","id":1315,"properties":{"area_key":"MOUNTAIN PROVINCE|PARACELIS","name":"Paracelis","short_name":"Paracelis","province":"Mountain Province","psgc":"144406000","is_city":false},"geometry":{"type":"Polygon","coordinates":[[[121.48738,17.28923],[121.50182,17.29087],[121.50591,17.28656],[121.50439,17.28416],[121.50551,17.28025],[121.51128,17.28225],[121.51112,17.27656],[121.51496,17.27804],[121.52388,17.27406],[121.52537,17.27175],[121.52747,17.27309],[121.52712,17.27003],[121.53067,17.26817],[121.53452,17.26951],[121.53709,17.26631],[121.54498,17.26489],[121.54278,17.24716],[121.5477,17.21458],[121.55043,17.21012],[121.54913,17.19652],[121.55539,17.18703],[121.56244,17.18535],[121.56267,17.15295],[121.5599,17.14453],[121.56334,17.14262],[121.56317,17.13792],[121.56695,17.1354],[121.56822,17.13075],[121.5656,17.1208],[121.5675,17.07906],[121.48755,17.07949],[121.41713,17.06802],[121.36069,17.15244],[121.34676,17.17055],[121.33063,17.20209],[121.33042,17.2352],[121.33832,17.23883],[121.34117,17.24512],[121.34733,17.24841],[121.35182,17.24701],[121.35767,17.25188],[121.36494,17.25444],[121.36785,17.25867],[121.37191,17.25977],[121.37603,17.25749],[121.38401,17.26193],[121.39522,17.2714],[121.40027,17.28153],[121.40699,17.28563],[121.4092,17.28344],[121.40915,17.2863],[121.41174,17.28667],[121.41262,17.28925],[121.41384,17.28472],[121.41842,17.28705],[121.42304,17.28578],[121.42672,17.28804],[121.47017,17.29249],[121.48597,17.29319],[121.48738,17.28923]]]}},{"type":"Feature","id":1316,"properties":{"area_key":"MOUNTAIN PROVINCE|SABANGAN","name":"Sabangan","short_name":"Sabangan","province":"Mountain Province","psgc":"144407000","is_city":false},"geometry":{"type":"Polygon","coordinates":[[[120.90393,17.03314],[120.91889,17.03045],[120.93087,17.03527],[120.93149,17.01576],[120.93311,17.01414],[120.94586,17.01254],[120.98279,16.99763],[120.99387,16.98906],[120.98411,16.98424],[120.97199,16.96887],[120.96573,16.95565],[120.96322,16.94069],[120.94644,16.89797],[120.9228,16.87522],[120.9083,16.8989],[120.89402,16.90816],[120.88846,16.93548],[120.89606,16.95778],[120.89535,16.96668],[120.89219,16.96683],[120.89446,16.97881],[120.89351,17.00295],[120.88732,17.01614],[120.89418,17.03992],[120.90393,17.03314]]]}},{"type":"Feature","id":1317,"properties":{"area_key":"MOUNTAIN PROVINCE|SADANGA","name":"Sadanga","short_name":"Sadanga","province":"Mountain Province","psgc":"144408000","is_city":false},"geometry":{"type":"Polygon","coordinates":[[[120.9432,17.24417],[120.94871,17.24108],[121.03022,17.23974],[121.05369,17.23102],[121.06883,17.22944],[121.08334,17.21609],[121.08789,17.18631],[121.09345,17.17418],[121.09332,17.15892],[121.09907,17.14639],[121.09569,17.11557],[121.08485,17.10338],[121.08316,17.09559],[121.07943,17.09254],[121.06942,17.10275],[121.03466,17.1213],[121.03169,17.12786],[121.0309,17.13583],[121.02671,17.14362],[120.99938,17.1539],[120.9773,17.18244],[120.91076,17.21308],[120.9119,17.24892],[120.9432,17.24417]]]}},{"type":"Feature","id":1318,"properties":{"area_key":"MOUNTAIN PROVINCE|SAGADA","name":"Sagada","short_name":"Sagada","province":"Mountain Province","psgc":"144409000","is_city":false},"geometry":{"type":"Polygon","coordinates":[[[120.92459,17.09861],[120.93385,17.09633],[120.93674,17.0928],[120.94207,17.0936],[120.94441,17.0892],[120.94323,17.0849],[120.94482,17.08366],[120.93958,17.07914],[120.93733,17.07227],[120.92833,17.06716],[120.91994,17.0503],[120.91866,17.03854],[120.93087,17.03527],[120.91889,17.03045],[120.90393,17.03314],[120.89418,17.03992],[120.88386,17.04111],[120.88615,17.05458],[120.86461,17.0603],[120.86572,17.06555],[120.86892,17.06748],[120.8691,17.07188],[120.87968,17.07744],[120.8767,17.0883],[120.87865,17.10123],[120.88407,17.11297],[120.87869,17.13525],[120.89105,17.19082],[120.90794,17.13826],[120.92459,17.09861]]]}},{"type":"Feature","id":1319,"properties":{"area_key":"MOUNTAIN PROVINCE|TADIAN","name":"Tadian","short_name":"Tadian","province":"Mountain Province","psgc":"144410000","is_city":false},"geometry":{"type":"Polygon","coordinates":[[[120.76761,17.06679],[120.86461,17.0603],[120.86676,17.04976],[120.8519,17.02806],[120.8554,16.99891],[120.84874,16.98172],[120.84098,16.97751],[120.83321,16.96591],[120.8368,16.9547],[120.84229,16.95103],[120.84172,16.94819],[120.84435,16.94598],[120.84496,16.94037],[120.85125,16.93368],[120.85268,16.92486],[120.85458,16.92323],[120.85654,16.9134],[120.84887,16.90083],[120.84132,16.90664],[120.82131,16.90167],[120.81173,16.89621],[120.8012,16.89877],[120.79614,16.90045],[120.78527,16.92134],[120.78148,16.96298],[120.78009,17.01649],[120.77708,17.01755],[120.7748,17.03616],[120.76761,17.06679]]]}},{"type":"Feature","id":1320,"properties":{"area_key":"APAYAO|CALANASAN","name":"Calanasan","short_name":"Calanasan","province":"Apayao","psgc":"148101000","is_city":false},"geometry":{"type":"Polygon","coordinates":[[[121.22208,18.50058],[121.22086,18.48304],[121.2258,18.47282],[121.2277,18.44172],[121.22654,18.43647],[121.24884,18.42888],[121.27054,18.40508],[121.21406,18.36226],[121.21503,18.21835],[121.156,18.21375],[121.13811,18.17614],[121.11492,18.14535],[121.06689,18.05109],[121.05288,18.03366],[121.02004,18.03595],[120.99857,18.03115],[121.00587,18.0212],[121.00521,18.01661],[120.9987,18.01383],[120.98955,18.00308],[120.98622,17.99533],[120.97401,17.98714],[120.96503,17.98426],[120.94031,17.9868],[120.94483,17.98945],[120.94695,17.99709],[120.94505,17.99653],[120.93931,18.00519],[120.93812,18.0124],[120.93226,18.0139],[120.92775,18.02074],[120.9334,18.02913],[120.93584,18.04843],[120.93299,18.05757],[120.93546,18.069],[120.92753,18.07863],[120.92814,18.08819],[120.94854,18.13261],[120.94805,18.13715],[120.97007,18.18186],[120.93879,18.22089],[120.92676,18.24194],[120.91667,18.28456],[120.94836,18.38169],[120.94704,18.42063],[120.95867,18.4632],[121.00287,18.46611],[121.02347,18.49869],[121.03881,18.50503],[121.04278,18.52819],[121.06137,18.5392],[121.0935,18.54175],[121.09293,18.53914],[121.09057,18.53819],[121.09236,18.53046],[121.08905,18.52714],[121.08906,18.49539],[121.11848,18.54311],[121.13579,18.5438],[121.156,18.54377],[121.16923,18.53912],[121.16786,18.52198],[121.22208,18.50058]]]}},{"type":"Feature","id":1321,"properties":{"area_key":"APAYAO|CONNER","name":"Conner","short_name":"Conner","province":"Apayao","psgc":"148102000","is_city":false},"geometry":{"type":"Polygon","coordinates":[[[121.32402,17.84647],[121.32072,17.8262],[121.31841,17.8287],[121.31589,17.82774],[121.31875,17.82509],[121.3174,17.82088],[121.31982,17.81839],[121.31945,17.81523],[121.30619,17.81565],[121.31058,17.81293],[121.31134,17.80927],[121.32537,17.80309],[121.35867,17.80465],[121.37339,17.80085],[121.3883,17.79363],[121.41412,17.76319],[121.4165,17.74935],[121.42469,17.74036],[121.42825,17.72961],[121.42853,17.72362],[121.43041,17.72123],[121.42909,17.71924],[121.43069,17.71493],[121.42888,17.71148],[121.43137,17.7102],[121.43052,17.70428],[121.43655,17.69323],[121.43276,17.69066],[121.41667,17.66666],[121.38184,17.65071],[121.37118,17.64169],[121.3497,17.6528],[121.29874,17.65611],[121.30483,17.66638],[121.29578,17.68042],[121.28444,17.6837],[121.26615,17.6832],[121.25869,17.67458],[121.25355,17.6723],[121.25346,17.6592],[121.24045,17.65438],[121.23529,17.64474],[121.23553,17.64124],[121.2312,17.6363],[121.21969,17.63555],[121.1985,17.6442],[121.18771,17.65147],[121.18643,17.65547],[121.17672,17.6571],[121.17359,17.66148],[121.17329,17.66655],[121.17023,17.66949],[121.16768,17.66987],[121.16201,17.66488],[121.15851,17.66607],[121.15156,17.66327],[121.14601,17.6633],[121.14366,17.66704],[121.14258,17.67603],[121.13932,17.67674],[121.13258,17.67234],[121.12095,17.67415],[121.11753,17.68333],[121.11067,17.68489],[121.10727,17.74969],[121.09541,17.80744],[121.08275,17.83621],[121.16286,17.85551],[121.28302,17.89163],[121.32073,17.89766],[121.33985,17.87173],[121.32402,17.84647]]]}},{"type":"Feature","id":1322,"properties":{"area_key":"APAYAO|FLORA","name":"Flora","short_name":"Flora","province":"Apayao","psgc":"148103000","is_city":false},"geometry":{"type":"Polygon","coordinates":[[[121.42076,18.24678],[121.43198,18.24717],[121.45922,18.23529],[121.46912,18.23741],[121.46856,18.23084],[121.44872,18.21522],[121.48712,18.20383],[121.48419,18.17887],[121.48659,18.17799],[121.48328,18.16967],[121.48482,18.16888],[121.4825,18.16833],[121.48511,18.16298],[121.48453,18.1482],[121.48185,18.14431],[121.47852,18.14357],[121.47854,18.14177],[121.47092,18.14033],[121.47077,18.13713],[121.47401,18.13376],[121.47329,18.1299],[121.46957,18.12844],[121.46857,18.12532],[121.46475,18.126],[121.46037,18.12412],[121.46567,18.10468],[121.46036,18.04941],[121.42784,18.03534],[121.36447,18.06162],[121.34689,18.03861],[121.3428,18.04155],[121.33724,18.042],[121.33664,18.04579],[121.3293,18.0421],[121.32633,18.04534],[121.32863,18.04663],[121.3281,18.0482],[121.32266,18.048],[121.32199,18.05442],[121.31649,18.05355],[121.32253,18.05906],[121.32078,18.06127],[121.31818,18.06033],[121.31733,18.06244],[121.32058,18.0644],[121.32167,18.07189],[121.3248,18.07114],[121.32281,18.06643],[121.32579,18.06418],[121.32775,18.06674],[121.32717,18.07491],[121.33365,18.07309],[121.34142,18.07827],[121.34584,18.08209],[121.34631,18.08542],[121.3539,18.09036],[121.35454,18.0946],[121.35887,18.09007],[121.36408,18.09205],[121.36067,18.09682],[121.36653,18.09965],[121.36284,18.10116],[121.36223,18.10341],[121.35783,18.10359],[121.35776,18.1082],[121.36919,18.11198],[121.37074,18.11474],[121.36427,18.12073],[121.36585,18.12434],[121.37023,18.12479],[121.36805,18.13341],[121.3613,18.13778],[121.34834,18.13619],[121.3451,18.14041],[121.34746,18.14574],[121.35759,18.15016],[121.35312,18.15912],[121.36171,18.16442],[121.3647,18.17339],[121.37111,18.18374],[121.37175,18.18721],[121.36852,18.19784],[121.37274,18.20261],[121.38792,18.20481],[121.39758,18.20869],[121.4049,18.21732],[121.41195,18.21928],[121.41659,18.22576],[121.41507,18.23766],[121.41638,18.24549],[121.4188,18.24819],[121.42076,18.24678]]]}},{"type":"Feature","id":1323,"properties":{"area_key":"APAYAO|KABUGAO","name":"Kabugao","short_name":"Kabugao","province":"Apayao","psgc":"148104000","is_city":false},"geometry":{"type":"Polygon","coordinates":[[[121.23211,18.13623],[121.23397,18.13689],[121.23454,18.1354],[121.23294,18.12387],[121.23766,18.12062],[121.23911,18.1023],[121.2455,18.10178],[121.24575,18.10434],[121.25343,18.10443],[121.25708,18.10831],[121.2594,18.10719],[121.26511,18.11008],[121.26864,18.10892],[121.27463,18.11149],[121.2931,18.08094],[121.27386,18.01936],[121.35745,17.92237],[121.35707,17.9132],[121.34696,17.87942],[121.33985,17.87173],[121.32073,17.89766],[121.28302,17.89163],[121.16286,17.85551],[121.08275,17.83621],[121.07739,17.84278],[121.06055,17.8479],[121.0285,17.84188],[121.01915,17.84182],[121.01063,17.84453],[121.00247,17.85332],[121.00019,17.90313],[120.99158,17.93134],[120.98469,17.94175],[120.97201,17.94607],[120.95633,17.95809],[120.94547,17.95918],[120.93948,17.96404],[120.93126,17.97364],[120.93772,17.9843],[120.94031,17.9868],[120.96503,17.98426],[120.97401,17.98714],[120.98622,17.99533],[120.98955,18.00308],[120.9987,18.01383],[121.00521,18.01661],[121.00587,18.0212],[120.99857,18.03115],[121.02004,18.03595],[121.05288,18.03366],[121.06689,18.05109],[121.11492,18.14535],[121.13811,18.17614],[121.156,18.21375],[121.21503,18.21835],[121.22109,18.20397],[121.22537,18.18558],[121.22615,18.15341],[121.22467,18.14375],[121.22929,18.14166],[121.22826,18.14007],[121.23211,18.13623]]]}},{"type":"Feature","id":1324,"properties":{"area_key":"APAYAO|LUNA","name":"Luna","short_name":"Luna","province":"Apayao","psgc":"148105000","is_city":false},"geometry":{"type":"Polygon","coordinates":[[[121.4119,18.3296],[121.4176,18.31825],[121.41412,18.30956],[121.40845,18.28222],[121.41689,18.27075],[121.41673,18.26739],[121.40945,18.26059],[121.41198,18.25394],[121.39147,18.25428],[121.37862,18.26125],[121.37634,18.25826],[121.37324,18.2592],[121.37501,18.25751],[121.37285,18.25335],[121.36063,18.25472],[121.36066,18.25136],[121.35803,18.25431],[121.3525,18.25159],[121.34955,18.25371],[121.34477,18.24867],[121.34362,18.25033],[121.33455,18.25186],[121.32986,18.24794],[121.33413,18.24543],[121.32618,18.24331],[121.32775,18.23844],[121.32499,18.23721],[121.31772,18.23851],[121.31897,18.23411],[121.3126,18.2289],[121.31037,18.22303],[121.30564,18.22102],[121.21503,18.21835],[121.21406,18.36226],[121.27054,18.40508],[121.28556,18.38854],[121.31862,18.38715],[121.36966,18.35726],[121.40238,18.3409],[121.4119,18.3296]]]}},{"type":"Feature","id":1325,"properties":{"area_key":"APAYAO|PUDTOL","name":"Pudtol","short_name":"Pudtol","province":"Apayao","psgc":"148106000","is_city":false},"geometry":{"type":"Polygon","coordinates":[[[121.37875,18.26116],[121.39147,18.25428],[121.41198,18.25394],[121.41242,18.24893],[121.41654,18.24486],[121.41507,18.23766],[121.41659,18.22576],[121.41195,18.21928],[121.4049,18.21732],[121.39758,18.20869],[121.38792,18.20481],[121.37825,18.20434],[121.37012,18.2006],[121.36827,18.1967],[121.37175,18.18721],[121.37111,18.18374],[121.3647,18.17339],[121.36171,18.16442],[121.35312,18.15912],[121.35759,18.15016],[121.34657,18.14455],[121.34542,18.13823],[121.34834,18.13619],[121.3613,18.13778],[121.36805,18.13341],[121.37023,18.12479],[121.36585,18.12434],[121.36427,18.12073],[121.37074,18.11474],[121.36919,18.11198],[121.35776,18.1082],[121.35783,18.10359],[121.36223,18.10341],[121.36284,18.10116],[121.36653,18.09965],[121.36067,18.09682],[121.36408,18.09205],[121.35887,18.09007],[121.35454,18.0946],[121.3539,18.09036],[121.34631,18.08542],[121.34584,18.08209],[121.34142,18.07827],[121.33365,18.07309],[121.32717,18.07491],[121.32775,18.06674],[121.32629,18.06443],[121.32293,18.066],[121.32504,18.0699],[121.32274,18.07228],[121.32058,18.0644],[121.31737,18.06287],[121.31818,18.06033],[121.32078,18.06127],[121.32253,18.05906],[121.31649,18.05355],[121.32199,18.05442],[121.32266,18.048],[121.3281,18.0482],[121.32863,18.04663],[121.32633,18.04534],[121.3293,18.0421],[121.33664,18.04579],[121.33724,18.042],[121.3428,18.04155],[121.34679,18.03878],[121.34356,18.03175],[121.34816,18.02988],[121.34929,18.02653],[121.34759,18.02276],[121.34399,18.02278],[121.34423,18.0167],[121.34074,18.01595],[121.3397,18.01326],[121.33672,18.01369],[121.33855,18.00797],[121.33096,17.99978],[121.33334,17.99767],[121.33107,17.99371],[121.33162,17.99098],[121.33022,17.99249],[121.32769,17.99104],[121.3244,17.99211],[121.32416,17.98921],[121.32159,17.98868],[121.3205,17.9845],[121.32663,17.97511],[121.32311,17.97699],[121.32207,17.97547],[121.32412,17.97344],[121.32031,17.97339],[121.31859,17.97526],[121.31824,17.97096],[121.31512,17.97078],[121.27386,18.01936],[121.2931,18.08094],[121.27629,18.1105],[121.27394,18.11154],[121.26777,18.10883],[121.26555,18.11019],[121.2594,18.10719],[121.25708,18.10831],[121.25343,18.10443],[121.24575,18.10434],[121.2455,18.10178],[121.23847,18.1033],[121.23762,18.10729],[121.23961,18.10939],[121.2369,18.11709],[121.23766,18.12062],[121.23282,18.12436],[121.23441,18.13627],[121.23055,18.13731],[121.22826,18.14007],[121.22929,18.14166],[121.22467,18.14375],[121.22615,18.15341],[121.22537,18.18558],[121.22109,18.20397],[121.21503,18.21835],[121.30564,18.22102],[121.31037,18.22303],[121.3126,18.2289],[121.31897,18.23411],[121.31772,18.23851],[121.32499,18.23721],[121.32775,18.23844],[121.32618,18.24331],[121.33413,18.24543],[121.32986,18.24794],[121.33406,18.25169],[121.34362,18.25033],[121.34477,18.24867],[121.34955,18.25371],[121.3525,18.25159],[121.35803,18.25431],[121.36066,18.25136],[121.36063,18.25472],[121.37285,18.25335],[121.37501,18.25751],[121.37324,18.2592],[121.37634,18.25826],[121.37875,18.26116]]]}},{"type":"Feature","id":1326,"properties":{"area_key":"APAYAO|SANTA MARCELA","name":"Santa Marcela","short_name":"Santa Marcela","province":"Apayao","psgc":"148107000","is_city":false},"geometry":{"type":"Polygon","coordinates":[[[121.46463,18.28491],[121.46791,18.2626],[121.48059,18.26338],[121.48821,18.24416],[121.48919,18.22553],[121.48712,18.20383],[121.44872,18.21522],[121.46856,18.23084],[121.46912,18.23741],[121.45922,18.23529],[121.43198,18.24717],[121.42102,18.24653],[121.4188,18.24819],[121.41638,18.24549],[121.41242,18.24893],[121.40945,18.26059],[121.41673,18.26739],[121.41689,18.27075],[121.40845,18.28222],[121.41412,18.30956],[121.41726,18.31509],[121.41583,18.32357],[121.46126,18.31462],[121.46685,18.30733],[121.48022,18.30637],[121.46463,18.28491]]]}}]}