{"type":"FeatureCollection","features":[{"type":"Feature","properties":{"area_key":"ABRA","name":"Abra"},"geometry":{"type":"Polygon","coordinates":[[[120.95633,17.95809],[120.97201,17.94607],[120.98469,17.94175],[120.99158,17.93134],[121.00019,17.90313],[121.00247,17.85332],[121.00603,17.84826],[121.01063,17.84453],[121.01915,17.84182],[121.03641,17.84252],[121.06055,17.8479],[121.07739,17.84278],[121.08275,17.83621],[121.09541,17.80744],[121.10883,17.73945],[121.11067,17.68489],[121.10779,17.68371],[121.10138,17.67367],[121.0953,17.67082],[121.08981,17.67093],[121.09046,17.64348],[121.09831,17.63088],[121.0904,17.62129],[121.08919,17.61367],[121.09396,17.6069],[121.1111,17.59868],[121.11691,17.58618],[121.11614,17.58134],[121.11156,17.5761],[121.11228,17.57089],[121.10902,17.55399],[121.10209,17.54928],[121.07316,17.54934],[121.06993,17.54777],[121.05939,17.52842],[121.03789,17.51824],[121.03364,17.51199],[121.0281,17.5079],[120.99978,17.49486],[120.99546,17.48961],[120.99273,17.4833],[120.9928,17.47821],[120.99919,17.46519],[120.99984,17.44454],[120.99938,17.43262],[120.99281,17.41781],[120.99207,17.4003],[120.98916,17.39221],[120.98251,17.38288],[120.97423,17.37953],[120.96337,17.36774],[120.95622,17.34071],[120.94474,17.32207],[120.93785,17.31544],[120.93024,17.29431],[120.92483,17.28479],[120.92632,17.27339],[120.91792,17.2671],[120.91664,17.25894],[120.91223,17.25367],[120.91076,17.21308],[120.89105,17.19082],[120.88231,17.18872],[120.85315,17.18744],[120.82752,17.18124],[120.80475,17.17127],[120.7962,17.16185],[120.77087,17.15696],[120.75133,17.15526],[120.74409,17.16244],[120.73937,17.15915],[120.73402,17.16807],[120.70276,17.17497],[120.69163,17.17273],[120.68675,17.18075],[120.68785,17.1841],[120.68055,17.18725],[120.67927,17.1914],[120.67213,17.19285],[120.6729,17.19548],[120.68001,17.19879],[120.676,17.21133],[120.68203,17.21806],[120.68347,17.22615],[120.67988,17.23521],[120.68271,17.24361],[120.67308,17.24241],[120.66949,17.24461],[120.67671,17.24929],[120.6784,17.25684],[120.63617,17.27563],[120.61195,17.30222],[120.59361,17.31019],[120.56676,17.30716],[120.56461,17.31144],[120.55901,17.31167],[120.55753,17.31673],[120.53861,17.3436],[120.53781,17.35699],[120.54281,17.37176],[120.56237,17.40186],[120.57786,17.43001],[120.58166,17.47183],[120.58889,17.49216],[120.57589,17.49101],[120.56549,17.50176],[120.54334,17.4922],[120.53374,17.49841],[120.51757,17.49961],[120.51159,17.49823],[120.49603,17.48731],[120.48789,17.48504],[120.48201,17.48592],[120.47442,17.48425],[120.47028,17.48871],[120.46779,17.49567],[120.46817,17.51473],[120.47574,17.53442],[120.48754,17.54498],[120.48531,17.54794],[120.49009,17.55602],[120.48758,17.56699],[120.4881,17.58462],[120.49782,17.62513],[120.51639,17.64924],[120.52969,17.69294],[120.53877,17.71312],[120.53876,17.72238],[120.54274,17.73532],[120.57182,17.78603],[120.58279,17.7991],[120.60223,17.80928],[120.6246,17.81463],[120.63328,17.81909],[120.68185,17.83035],[120.69087,17.83458],[120.71309,17.85996],[120.71785,17.87333],[120.72825,17.89251],[120.74365,17.9014],[120.78375,17.91124],[120.81006,17.93505],[120.82604,17.95476],[120.83369,17.95945],[120.8502,17.96286],[120.86494,17.96152],[120.89459,17.95147],[120.90997,17.94993],[120.9204,17.95626],[120.93126,17.97364],[120.94547,17.95918],[120.95633,17.95809]]]}},{"type":"Feature","properties":{"area_key":"BENGUET","name":"Benguet"},"geometry":{"type":"Polygon","coordinates":[[[120.75882,16.9265],[120.77062,16.92119],[120.78527,16.92134],[120.79614,16.90045],[120.8012,16.89877],[120.81173,16.89621],[120.82131,16.90167],[120.83358,16.90523],[120.84132,16.90664],[120.84464,16.90489],[120.85106,16.89794],[120.85101,16.87432],[120.85423,16.86093],[120.85201,16.85773],[120.85643,16.854],[120.85674,16.84186],[120.87011,16.82958],[120.87464,16.82733],[120.88616,16.82741],[120.89301,16.82106],[120.89232,16.81487],[120.89861,16.77632],[120.8938,16.74359],[120.89433,16.69284],[120.91517,16.62996],[120.92951,16.60005],[120.90441,16.59536],[120.89211,16.55846],[120.88321,16.50539],[120.88943,16.43607],[120.87814,16.42158],[120.87116,16.38424],[120.86392,16.37481],[120.86035,16.35339],[120.84552,16.3195],[120.82318,16.31853],[120.81593,16.31315],[120.81312,16.30356],[120.80005,16.30485],[120.76897,16.19803],[120.69775,16.191],[120.68197,16.18393],[120.63237,16.18395],[120.62924,16.18038],[120.55802,16.21842],[120.54275,16.22223],[120.5202,16.23344],[120.51182,16.2322],[120.5167,16.24948],[120.51257,16.25985],[120.5106,16.2758],[120.50655,16.28719],[120.50083,16.29336],[120.49737,16.31298],[120.49912,16.32306],[120.4906,16.33248],[120.49272,16.33569],[120.49615,16.33554],[120.4967,16.34014],[120.49326,16.34199],[120.49628,16.34544],[120.49472,16.34775],[120.4798,16.34871],[120.48161,16.35053],[120.47909,16.35537],[120.48227,16.35444],[120.4844,16.35889],[120.46904,16.37976],[120.44464,16.38698],[120.44903,16.38876],[120.4479,16.39241],[120.45382,16.39699],[120.45525,16.40488],[120.45027,16.4062],[120.45016,16.4086],[120.45411,16.40803],[120.45896,16.41668],[120.46673,16.41773],[120.46668,16.42375],[120.46997,16.42488],[120.46889,16.43263],[120.47215,16.449],[120.47311,16.47272],[120.46735,16.50271],[120.46915,16.50848],[120.47905,16.52282],[120.47821,16.53],[120.48809,16.54087],[120.51263,16.55026],[120.51636,16.55802],[120.51338,16.56226],[120.51708,16.56862],[120.51592,16.57105],[120.51204,16.5717],[120.51786,16.59469],[120.54122,16.63801],[120.55565,16.65759],[120.56506,16.66977],[120.57151,16.67251],[120.57452,16.67126],[120.59904,16.73832],[120.58962,16.74718],[120.58826,16.76744],[120.58624,16.77083],[120.588,16.77615],[120.58502,16.8201],[120.58602,16.83666],[120.61018,16.84002],[120.61305,16.85699],[120.62454,16.87778],[120.64433,16.89737],[120.65715,16.90146],[120.66008,16.90899],[120.66956,16.91198],[120.7341,16.91469],[120.73626,16.91723],[120.73857,16.91598],[120.74069,16.91778],[120.74751,16.92655],[120.75882,16.9265]],[[120.67597,16.63751],[120.67802,16.63671],[120.67835,16.63884],[120.67608,16.63997],[120.67597,16.63751]],[[120.74578,16.48887],[120.744,16.48381],[120.74561,16.48064],[120.74143,16.47716],[120.74476,16.47632],[120.74399,16.47187],[120.73589,16.47418],[120.74188,16.47053],[120.74109,16.46466],[120.74637,16.45886],[120.74719,16.46377],[120.75194,16.46799],[120.74995,16.4713],[120.75213,16.47484],[120.75183,16.47844],[120.75558,16.47982],[120.76005,16.47796],[120.76321,16.4798],[120.76624,16.47797],[120.76723,16.48064],[120.76455,16.48322],[120.76768,16.48611],[120.76305,16.48668],[120.76178,16.48192],[120.75858,16.48198],[120.7556,16.48337],[120.75555,16.48547],[120.75175,16.48261],[120.75327,16.48677],[120.75143,16.48699],[120.74742,16.48229],[120.74601,16.4827],[120.7477,16.48657],[120.74578,16.48887]],[[120.72252,16.40754],[120.72272,16.40237],[120.72615,16.40104],[120.71963,16.40064],[120.71758,16.39534],[120.71888,16.3923],[120.7245,16.39114],[120.72853,16.39291],[120.72939,16.39582],[120.72726,16.39587],[120.72704,16.39772],[120.73204,16.40116],[120.73068,16.4039],[120.72413,16.40364],[120.72414,16.40653],[120.72864,16.41001],[120.72882,16.4124],[120.72657,16.41248],[120.72252,16.40754]],[[120.67802,16.39328],[120.67969,16.39645],[120.67959,16.3997],[120.67678,16.39559],[120.67802,16.39328]],[[120.65887,16.40073],[120.65891,16.40206],[120.65811,16.40132],[120.65887,16.40073]]]}},{"type":"Feature","properties":{"area_key":"IFUGAO","name":"Ifugao"},"geometry":{"type":"Polygon","coordinates":[[[121.48755,17.07949],[121.5675,17.07906],[121.57149,17.04094],[121.56873,17.01917],[121.55876,17.01219],[121.56072,17.00946],[121.56254,16.96739],[121.57287,16.96879],[121.56464,16.96114],[121.56203,16.95317],[121.56244,16.95143],[121.56437,16.95314],[121.5649,16.95091],[121.56984,16.94808],[121.56821,16.94796],[121.56822,16.90951],[121.56407,16.90761],[121.56372,16.90218],[121.55842,16.89909],[121.54887,16.87369],[121.54196,16.87764],[121.53798,16.87782],[121.53197,16.86339],[121.53183,16.85134],[121.52132,16.83893],[121.50235,16.83454],[121.47914,16.83597],[121.47342,16.83162],[121.45826,16.82628],[121.44491,16.82453],[121.43291,16.81849],[121.41952,16.81747],[121.40175,16.80487],[121.3946,16.80525],[121.38601,16.79668],[121.37201,16.79836],[121.37198,16.79543],[121.37796,16.79044],[121.37592,16.78845],[121.36212,16.78935],[121.35842,16.78702],[121.35954,16.77885],[121.35475,16.77442],[121.35409,16.78364],[121.34467,16.78903],[121.33917,16.78847],[121.33585,16.78479],[121.33632,16.7805],[121.34354,16.77754],[121.34577,16.76947],[121.34482,16.76765],[121.33175,16.76486],[121.32617,16.75754],[121.32973,16.75367],[121.33728,16.75621],[121.33931,16.75522],[121.33381,16.75194],[121.33037,16.73543],[121.32416,16.73122],[121.31434,16.71791],[121.31541,16.70131],[121.31376,16.69688],[121.31215,16.69778],[121.30437,16.69306],[121.29365,16.69412],[121.28837,16.68837],[121.28824,16.68624],[121.29188,16.68374],[121.29404,16.67925],[121.29137,16.67355],[121.29483,16.6633],[121.28988,16.65793],[121.28468,16.65778],[121.27917,16.66752],[121.27643,16.66853],[121.27115,16.66374],[121.26946,16.65899],[121.26409,16.66059],[121.26038,16.65833],[121.25889,16.65114],[121.25376,16.65105],[121.25216,16.65269],[121.24973,16.65094],[121.24382,16.65131],[121.24113,16.65394],[121.23604,16.65416],[121.2326,16.64916],[121.22471,16.64796],[121.22241,16.64466],[121.21312,16.64572],[121.21188,16.64167],[121.20447,16.64288],[121.20193,16.6398],[121.19775,16.63896],[121.1767,16.64027],[121.17368,16.64461],[121.16982,16.6459],[121.1632,16.64301],[121.16221,16.63904],[121.16058,16.63869],[121.15266,16.64209],[121.1355,16.64475],[121.10563,16.63056],[121.07213,16.62783],[121.0357,16.61001],[121.02794,16.60227],[120.98372,16.56947],[120.97311,16.56945],[120.94754,16.5792],[120.93994,16.58508],[120.93233,16.59465],[120.91517,16.62996],[120.89433,16.69284],[120.8938,16.74359],[120.89861,16.77632],[120.89232,16.81487],[120.89301,16.82106],[120.91013,16.83411],[120.92138,16.86144],[120.9228,16.87522],[120.94644,16.89797],[120.96322,16.94069],[120.96573,16.95565],[120.97199,16.96887],[120.98411,16.98424],[120.99387,16.98906],[121.00899,16.98427],[121.023,16.98509],[121.03271,16.98976],[121.075,17.00294],[121.10765,17.00885],[121.11663,17.00842],[121.14537,17.01235],[121.16356,17.00429],[121.21439,17.00331],[121.22846,17.00609],[121.24494,17.00585],[121.26067,17.01628],[121.28572,17.02713],[121.34873,17.06433],[121.37322,17.07349],[121.4027,17.07186],[121.41713,17.06802],[121.48755,17.07949]]]}},{"type":"Feature","properties":{"area_key":"KALINGA","name":"Kalinga"},"geometry":{"type":"Polygon","coordinates":[[[121.4384,17.69063],[121.43676,17.67135],[121.44187,17.66454],[121.45216,17.66119],[121.45762,17.66308],[121.45758,17.66945],[121.46371,17.66923],[121.46648,17.67236],[121.4727,17.67202],[121.47706,17.6688],[121.47587,17.66312],[121.47227,17.65991],[121.48512,17.64732],[121.47619,17.64545],[121.48409,17.6385],[121.48884,17.62598],[121.48724,17.61005],[121.49191,17.60935],[121.49661,17.59104],[121.51408,17.59018],[121.52582,17.58368],[121.53392,17.58432],[121.54672,17.58062],[121.5733,17.56479],[121.57673,17.55549],[121.59972,17.5482],[121.60304,17.56341],[121.6142,17.56032],[121.63258,17.53322],[121.62597,17.52859],[121.6352,17.52163],[121.63325,17.51926],[121.63961,17.50436],[121.64723,17.50048],[121.64237,17.46864],[121.63793,17.45354],[121.62793,17.43139],[121.6291,17.41832],[121.60608,17.42143],[121.59348,17.39692],[121.58219,17.35356],[121.55993,17.35048],[121.54836,17.32395],[121.5387,17.31727],[121.53322,17.29652],[121.53017,17.27492],[121.53452,17.26951],[121.53067,17.26817],[121.52712,17.27003],[121.52747,17.27309],[121.52537,17.27175],[121.52388,17.27406],[121.51496,17.27804],[121.51112,17.27656],[121.51128,17.28225],[121.50551,17.28025],[121.50439,17.28416],[121.50591,17.28656],[121.4999,17.29157],[121.49777,17.2897],[121.48795,17.28913],[121.48597,17.29319],[121.47017,17.29249],[121.42672,17.28804],[121.42304,17.28578],[121.41842,17.28705],[121.41384,17.28472],[121.41262,17.28925],[121.41174,17.28667],[121.40915,17.2863],[121.4092,17.28344],[121.40699,17.28563],[121.40027,17.28153],[121.39522,17.2714],[121.38401,17.26193],[121.37603,17.25749],[121.37191,17.25977],[121.36785,17.25867],[121.36494,17.25444],[121.35767,17.25188],[121.35182,17.24701],[121.34733,17.24841],[121.34568,17.2462],[121.34251,17.24595],[121.33832,17.23883],[121.33542,17.23623],[121.33088,17.2361],[121.32721,17.23124],[121.31843,17.23113],[121.30338,17.24134],[121.29261,17.24422],[121.28932,17.24346],[121.28901,17.2361],[121.28604,17.23152],[121.27379,17.23099],[121.2677,17.22763],[121.26042,17.22747],[121.25746,17.22126],[121.25723,17.21071],[121.25502,17.20431],[121.24824,17.19351],[121.2423,17.18933],[121.22602,17.18277],[121.21477,17.18104],[121.1997,17.17417],[121.18519,17.17084],[121.18,17.17226],[121.15979,17.16949],[121.11593,17.17765],[121.1004,17.18649],[121.08662,17.199],[121.08334,17.21609],[121.06883,17.22944],[121.05369,17.23102],[121.03022,17.23974],[120.94871,17.24108],[120.9432,17.24417],[120.9119,17.24892],[120.91223,17.25367],[120.91664,17.25894],[120.91792,17.2671],[120.92632,17.27339],[120.92483,17.28479],[120.93024,17.29431],[120.93785,17.31544],[120.94474,17.32207],[120.95622,17.34071],[120.96337,17.36774],[120.97423,17.37953],[120.98251,17.38288],[120.98916,17.39221],[120.99207,17.4003],[120.99281,17.41781],[120.99938,17.43262],[120.99984,17.44454],[120.99919,17.46519],[120.9928,17.47821],[120.99273,17.4833],[120.99546,17.48961],[120.99978,17.49486],[121.0281,17.5079],[121.03364,17.51199],[121.03789,17.51824],[121.05939,17.52842],[121.06993,17.54777],[121.07316,17.54934],[121.10209,17.54928],[121.10902,17.55399],[121.11228,17.57089],[121.11156,17.5761],[121.11614,17.58134],[121.11691,17.58618],[121.1111,17.59868],[121.09396,17.6069],[121.08919,17.61367],[121.0904,17.62129],[121.09831,17.63088],[121.09046,17.64348],[121.09025,17.67131],[121.09762,17.67161],[121.10329,17.6751],[121.10779,17.68371],[121.11558,17.68468],[121.11937,17.68022],[121.12095,17.67415],[121.13258,17.67234],[121.13932,17.67674],[121.14258,17.67603],[121.14366,17.66704],[121.14601,17.6633],[121.15156,17.66327],[121.15851,17.66607],[121.16201,17.66488],[121.16768,17.66987],[121.17023,17.66949],[121.17329,17.66655],[121.17359,17.66148],[121.177,17.65692],[121.18643,17.65547],[121.18771,17.65147],[121.20007,17.64336],[121.21773,17.63589],[121.22483,17.63555],[121.2312,17.6363],[121.23317,17.63835],[121.24045,17.65438],[121.25346,17.6592],[121.25355,17.6723],[121.25869,17.67458],[121.26481,17.68258],[121.28444,17.6837],[121.29578,17.68042],[121.30439,17.66791],[121.30359,17.66199],[121.29874,17.65611],[121.3497,17.6528],[121.37118,17.64169],[121.38184,17.65071],[121.41667,17.66666],[121.43276,17.69066],[121.43655,17.69323],[121.4384,17.69063]]]}},{"type":"Feature","properties":{"area_key":"MOUNTAIN PROVINCE","name":"Mountain Province"},"geometry":{"type":"Polygon","coordinates":[[[121.48738,17.28923],[121.50182,17.29087],[121.50591,17.28656],[121.50439,17.28416],[121.50551,17.28025],[121.51128,17.28225],[121.51112,17.27656],[121.51496,17.27804],[121.52388,17.27406],[121.52537,17.27175],[121.52747,17.27309],[121.52712,17.27003],[121.53067,17.26817],[121.53452,17.26951],[121.53709,17.26631],[121.54498,17.26489],[121.54278,17.24716],[121.5477,17.21458],[121.55043,17.21012],[121.54913,17.19652],[121.55539,17.18703],[121.56244,17.18535],[121.56267,17.15295],[121.5599,17.14453],[121.56334,17.14262],[121.56317,17.13792],[121.56695,17.1354],[121.56822,17.13075],[121.5656,17.1208],[121.5675,17.07906],[121.48755,17.07949],[121.41713,17.06802],[121.4027,17.07186],[121.37322,17.07349],[121.34873,17.06433],[121.28572,17.02713],[121.26067,17.01628],[121.24494,17.00585],[121.22846,17.00609],[121.21439,17.00331],[121.16356,17.00429],[121.14537,17.01235],[121.11663,17.00842],[121.10765,17.00885],[121.075,17.00294],[121.03271,16.98976],[121.023,16.98509],[121.00899,16.98427],[120.99387,16.98906],[120.98411,16.98424],[120.97199,16.96887],[120.96573,16.95565],[120.96322,16.94069],[120.94644,16.89797],[120.9228,16.87522],[120.92138,16.86144],[120.91013,16.83411],[120.89301,16.82106],[120.88616,16.82741],[120.87464,16.82733],[120.87011,16.82958],[120.85674,16.84186],[120.85643,16.854],[120.85201,16.85773],[120.85423,16.86093],[120.85101,16.87432],[120.85106,16.89794],[120.84464,16.90489],[120.84132,16.90664],[120.83358,16.90523],[120.82131,16.90167],[120.81173,16.89621],[120.79614,16.90045],[120.78527,16.92134],[120.78148,16.96298],[120.78009,17.01649],[120.77708,17.01755],[120.7748,17.03616],[120.76761,17.06679],[120.77482,17.10802],[120.81236,17.15587],[120.80475,17.17127],[120.82752,17.18124],[120.85315,17.18744],[120.88231,17.18872],[120.89105,17.19082],[120.91076,17.21308],[120.9119,17.24892],[120.9432,17.24417],[120.94871,17.24108],[121.03022,17.23974],[121.05369,17.23102],[121.06883,17.22944],[121.08334,17.21609],[121.08493,17.20361],[121.08817,17.19683],[121.1004,17.18649],[121.11593,17.17765],[121.15979,17.16949],[121.18,17.17226],[121.18519,17.17084],[121.1997,17.17417],[121.21477,17.18104],[121.22602,17.18277],[121.24784,17.19313],[121.25502,17.20431],[121.25723,17.21071],[121.25746,17.22126],[121.26042,17.22747],[121.2677,17.22763],[121.27379,17.23099],[121.28604,17.23152],[121.28901,17.2361],[121.28932,17.24346],[121.29261,17.24422],[121.30338,17.24134],[121.31843,17.23113],[121.32721,17.23124],[121.33088,17.2361],[121.33542,17.23623],[121.33832,17.23883],[121.34251,17.24595],[121.34568,17.2462],[121.34733,17.24841],[121.35182,17.24701],[121.35767,17.25188],[121.36494,17.25444],[121.36785,17.25867],[121.37191,17.25977],[121.37603,17.25749],[121.38401,17.26193],[121.39522,17.2714],[121.40027,17.28153],[121.40699,17.28563],[121.4092,17.28344],[121.40915,17.2863],[121.41174,17.28667],[121.41262,17.28925],[121.41384,17.28472],[121.41842,17.28705],[121.42304,17.28578],[121.42672,17.28804],[121.47017,17.29249],[121.48597,17.29319],[121.48738,17.28923]]]}},{"type":"Feature","properties":{"area_key":"APAYAO","name":"Apayao"},"geometry":{"type":"Polygon","coordinates":[[[121.22208,18.50058],[121.22086,18.48304],[121.2258,18.47282],[121.2277,18.44172],[121.22654,18.43647],[121.24884,18.42888],[121.28556,18.38854],[121.31862,18.38715],[121.36966,18.35726],[121.40238,18.3409],[121.40744,18.33334],[121.41286,18.32937],[121.41583,18.32357],[121.46126,18.31462],[121.46685,18.30733],[121.48022,18.30637],[121.46463,18.28491],[121.46791,18.2626],[121.48059,18.26338],[121.48948,18.23884],[121.48879,18.21727],[121.48419,18.17887],[121.48659,18.17799],[121.48328,18.16967],[121.48482,18.16888],[121.4825,18.16833],[121.48511,18.16298],[121.48346,18.15102],[121.4847,18.1491],[121.47854,18.14177],[121.47092,18.14033],[121.47077,18.13713],[121.47401,18.13376],[121.47329,18.1299],[121.46957,18.12844],[121.46857,18.12532],[121.46475,18.126],[121.46037,18.12412],[121.46567,18.10468],[121.46036,18.04941],[121.42784,18.03534],[121.36447,18.06162],[121.34356,18.03222],[121.34828,18.02974],[121.3492,18.02516],[121.34759,18.02276],[121.34399,18.02278],[121.34423,18.0167],[121.34074,18.01595],[121.3397,18.01326],[121.33672,18.01369],[121.33855,18.00797],[121.33096,17.99978],[121.33334,17.99767],[121.33107,17.99371],[121.33178,17.99122],[121.3244,17.99211],[121.32416,17.98921],[121.32159,17.98868],[121.3205,17.9845],[121.32663,17.97511],[121.32311,17.97699],[121.32207,17.97547],[121.32412,17.97344],[121.32031,17.97339],[121.31859,17.97526],[121.31824,17.97096],[121.31512,17.97078],[121.35745,17.92237],[121.35707,17.9132],[121.34696,17.87942],[121.3342,17.86457],[121.32414,17.84713],[121.32072,17.8262],[121.31841,17.8287],[121.31593,17.82786],[121.31875,17.82509],[121.3174,17.82088],[121.31982,17.81839],[121.31945,17.81523],[121.30731,17.81658],[121.30629,17.81453],[121.31058,17.81293],[121.31347,17.80767],[121.32537,17.80309],[121.35867,17.80465],[121.37339,17.80085],[121.3883,17.79363],[121.41412,17.76319],[121.4165,17.74935],[121.42469,17.74036],[121.42825,17.72961],[121.42853,17.72362],[121.43041,17.72123],[121.42909,17.71924],[121.43069,17.71493],[121.42888,17.71148],[121.43137,17.7102],[121.43052,17.70428],[121.43655,17.69323],[121.43276,17.69066],[121.41667,17.66666],[121.38184,17.65071],[121.37118,17.64169],[121.3497,17.6528],[121.29874,17.65611],[121.30359,17.66199],[121.30439,17.66791],[121.29578,17.68042],[121.28444,17.6837],[121.26481,17.68258],[121.25869,17.67458],[121.25355,17.6723],[121.25346,17.6592],[121.24045,17.65438],[121.23317,17.63835],[121.2312,17.6363],[121.22483,17.63555],[121.21773,17.63589],[121.20007,17.64336],[121.18771,17.65147],[121.18643,17.65547],[121.177,17.65692],[121.17359,17.66148],[121.17329,17.66655],[121.16961,17.66975],[121.16556,17.66868],[121.16201,17.66488],[121.15851,17.66607],[121.15156,17.66327],[121.14601,17.6633],[121.14366,17.66704],[121.1424,17.67612],[121.13932,17.67674],[121.13258,17.67234],[121.1206,17.67434],[121.11753,17.68333],[121.11067,17.68489],[121.10727,17.74969],[121.09541,17.80744],[121.081,17.83903],[121.07235,17.84505],[121.06055,17.8479],[121.03641,17.84252],[121.01915,17.84182],[121.01063,17.84453],[121.00603,17.84826],[121.00247,17.85332],[121.00019,17.90313],[120.99435,17.92471],[120.98723,17.9388],[120.98469,17.94175],[120.97201,17.94607],[120.95633,17.95809],[120.94547,17.95918],[120.93126,17.97364],[120.93772,17.9843],[120.94483,17.98945],[120.94695,17.99709],[120.94505,17.99653],[120.93931,18.00519],[120.93812,18.0124],[120.93226,18.0139],[120.92775,18.02074],[120.9334,18.02913],[120.93584,18.04843],[120.93299,18.05757],[120.93546,18.069],[120.92753,18.07863],[120.92814,18.08819],[120.94854,18.13261],[120.94805,18.13715],[120.97007,18.18186],[120.93879,18.22089],[120.92676,18.24194],[120.91667,18.28456],[120.94836,18.38169],[120.94704,18.42063],[120.95867,18.4632],[121.00287,18.46611],[121.02347,18.49869],[121.03881,18.50503],[121.04278,18.52819],[121.06137,18.5392],[121.0935,18.54175],[121.09293,18.53914],[121.09057,18.53819],[121.09236,18.53046],[121.08905,18.52714],[121.08906,18.49539],[121.11848,18.54311],[121.13579,18.5438],[121.156,18.54377],[121.16923,18.53912],[121.16786,18.52198],[121.22208,18.50058]]]}}]}