{"type": "FeatureCollection", "features": [{"type": "Feature", "geometry": {"type": "Point", "coordinates": [120.64, 17.565]}, "properties": {"name": "DEMO Abra River Irrigation System", "type": "NIS", "type_label": "National Irrigation System (NIA)", "municipality": "Bangued", "province": "Abra", "river": "Abra River", "status": "Operational", "source": "Synthetic demo record (approximate location)", "service_area_ha": 2150.0}}, {"type": "Feature", "geometry": {"type": "Point", "coordinates": [121.42, 17.465]}, "properties": {"name": "DEMO Chico River Irrigation System", "type": "NIS", "type_label": "National Irrigation System (NIA)", "municipality": "Tabuk", "province": "Kalinga", "river": "Chico River", "status": "Operational", "source": "Synthetic demo record (approximate location)", "service_area_ha": 8700.0}}, {"type": "Feature", "geometry": {"type": "Point", "coordinates": [121.22, 16.66]}, "properties": {"name": "DEMO Lamut CIS", "type": "CIS", "type_label": "Communal Irrigation System (NIA)", "municipality": "Lamut", "province": "Ifugao", "river": "Lamut River", "status": "Operational", "source": "Synthetic demo record (approximate location)", "service_area_ha": 410.0}}, {"type": "Feature", "geometry": {"type": "Point", "coordinates": [121.41, 17.18]}, "properties": {"name": "DEMO Paracelis SWIP", "type": "SWIP", "type_label": "Small Water Impounding Project", "municipality": "Paracelis", "province": "Mountain Province", "river": "Creek", "status": "For rehabilitation", "source": "Synthetic demo record (approximate location)", "service_area_ha": 85.0}}, {"type": "Feature", "geometry": {"type": "Point", "coordinates": [121.38, 18.23]}, "properties": {"name": "DEMO Pudtol SSIP", "type": "SSIP", "type_label": "Small-Scale Irrigation Project", "municipality": "Pudtol", "province": "Apayao", "river": "Apayao River", "status": "Operational", "source": "Synthetic demo record (approximate location)", "service_area_ha": 40.0}}, {"type": "Feature", "geometry": {"type": "Point", "coordinates": [120.745, 16.465]}, "properties": {"name": "DEMO Ambuklao Dam", "type": "DAM", "type_label": "Dam", "municipality": "Bokod", "province": "Benguet", "river": "Agno River", "status": "Operational", "source": "Synthetic demo record (approximate location)", "service_area_ha": null}}], "synthetic": true}